postcode,borough,latitude,longitude
10004,MANHATTAN,40.703235,-74.012421
10004,MANHATTAN,40.702744,-74.012201
10004,MANHATTAN,40.704025,-74.012638
10004,MANHATTAN,40.704039,-74.01231700000001
10282,MANHATTAN,40.714812,-74.016153
10004,MANHATTAN,40.705523,-74.01711
10006,MANHATTAN,40.707632000000004,-74.013068
10004,MANHATTAN,40.704703,-74.010398
10005,MANHATTAN,40.705486,-74.007874
10005,MANHATTAN,40.704638,-74.006694
10005,MANHATTAN,40.705187,-74.00636899999999
10005,MANHATTAN,40.705431,-74.00705500000001
10005,MANHATTAN,40.705299,-74.007242
10005,MANHATTAN,40.706773,-74.00914300000001
10005,MANHATTAN,40.706523,-74.00825999999999
10005,MANHATTAN,40.7064,-74.008043
10005,MANHATTAN,40.7064,-74.008043
10006,MANHATTAN,40.709468,-74.01293100000001
10006,MANHATTAN,40.708351,-74.014323
10006,MANHATTAN,40.708321000000005,-74.01345
10006,MANHATTAN,40.708263,-74.013475
10006,MANHATTAN,40.709139,-74.01402
10006,MANHATTAN,40.709493,-74.014976
10006,MANHATTAN,40.709728999999996,-74.013818
10038,MANHATTAN,40.708931,-74.009035
10038,MANHATTAN,40.709669,-74.010092
10038,MANHATTAN,40.709765000000004,-74.008765
10038,MANHATTAN,40.710037,-74.00977900000001
10038,MANHATTAN,40.708028000000006,-74.00793900000001
10038,MANHATTAN,40.707753000000004,-74.006918
10038,MANHATTAN,40.707086,-74.00624300000001
10038,MANHATTAN,40.707704,-74.006644
10038,MANHATTAN,40.705714,-74.005399
10038,MANHATTAN,40.706051,-74.0051
10038,MANHATTAN,40.708988,-74.007654
10038,MANHATTAN,40.709728999999996,-74.006792
10038,MANHATTAN,40.709916,-74.008949
10007,MANHATTAN,40.711453000000006,-74.010504
10038,MANHATTAN,40.710764000000005,-74.007708
10038,MANHATTAN,40.711393,-74.00666600000001
10038,MANHATTAN,40.710962,-74.00686400000001
10038,MANHATTAN,40.710306,-74.006828
10038,MANHATTAN,40.71055,-74.005771
10038,MANHATTAN,40.71055,-74.005771
10038,MANHATTAN,40.71055,-74.005771
10038,MANHATTAN,40.709021,-74.00227199999999
10038,MANHATTAN,40.707962,-74.001706
10007,MANHATTAN,40.712987,-74.008686
10007,MANHATTAN,40.715205,-74.009476
10007,MANHATTAN,40.715309000000005,-74.00875500000001
10013,MANHATTAN,40.716114000000005,-74.00737
10013,MANHATTAN,40.715002,-73.999628
10013,MANHATTAN,40.716968,-74.00188299999999
10013,MANHATTAN,40.719783,-74.010227
10013,MANHATTAN,40.719128000000005,-74.005166
10013,MANHATTAN,40.718488,-74.00264399999999
10013,MANHATTAN,40.719358,-74.00190500000001
10013,MANHATTAN,40.718096,-74.00133100000001
10013,MANHATTAN,40.715763,-73.996378
10013,MANHATTAN,40.717321999999996,-73.99557
10013,MANHATTAN,40.719084,-73.999953
10013,MANHATTAN,40.718515999999994,-74.000635
10013,MANHATTAN,40.721,-74.004152
10013,MANHATTAN,40.721068,-74.005758
10013,MANHATTAN,40.721634,-74.004412
10013,MANHATTAN,40.722827,-74.004726
10013,MANHATTAN,40.719904,-74.00030699999999
10013,MANHATTAN,40.719891,-73.99875899999999
10013,MANHATTAN,40.718128,-73.99499300000001
10013,MANHATTAN,40.717821,-73.99515500000001
10002,MANHATTAN,40.712433000000004,-73.99273199999999
10038,MANHATTAN,40.712875,-73.998586
10002,MANHATTAN,40.713149,-73.99298399999999
10002,MANHATTAN,40.713761,-73.993666
10002,MANHATTAN,40.714299,-73.993723
10002,MANHATTAN,40.715389,-73.99353599999999
10002,MANHATTAN,40.714771,-73.99265600000001
10002,MANHATTAN,40.715018,-73.992313
10002,MANHATTAN,40.717132,-73.99550500000001
10002,MANHATTAN,40.716525,-73.994647
10002,MANHATTAN,40.715916,-73.995127
10002,MANHATTAN,40.717607,-73.995245
10002,MANHATTAN,40.718403,-73.994665
10002,MANHATTAN,40.717044,-73.992547
10002,MANHATTAN,40.717969000000004,-73.986458
10002,MANHATTAN,40.718559,-73.99
10002,MANHATTAN,40.718559,-73.99
10002,MANHATTAN,40.719967,-73.988023
10002,MANHATTAN,40.719111,-73.988864
10002,MANHATTAN,40.720362,-73.9882
10002,MANHATTAN,40.721810999999995,-73.98746700000001
10002,MANHATTAN,40.721853,-73.988304
10002,MANHATTAN,40.718095,-73.990938
10002,MANHATTAN,40.720040999999995,-73.98926
10002,MANHATTAN,40.719454,-73.98956
10002,MANHATTAN,40.721043,-73.988748
10002,MANHATTAN,40.723137,-73.989303
10002,MANHATTAN,40.722248,-73.988899
10002,MANHATTAN,40.718707,-73.99268000000001
10002,MANHATTAN,40.723382,-73.990144
10002,MANHATTAN,40.719051,-73.994553
10002,MANHATTAN,40.720741,-73.993864
10002,MANHATTAN,40.721337,-73.992561
10002,MANHATTAN,40.721949,-73.993402
10002,MANHATTAN,40.722747999999996,-73.99310600000001
10002,MANHATTAN,40.722786,-73.99146400000001
10003,MANHATTAN,40.728269,-73.984803
10003,MANHATTAN,40.725465,-73.991879
10003,MANHATTAN,40.726046999999994,-73.991908
10003,MANHATTAN,40.727751,-73.9912
10003,MANHATTAN,40.728171,-73.990897
10003,MANHATTAN,40.72821,-73.98868900000001
10003,MANHATTAN,40.729279999999996,-73.990085
10003,MANHATTAN,40.729793,-73.989703
10003,MANHATTAN,40.729807,-73.989692
10003,MANHATTAN,40.731415000000005,-73.98853299999999
10013,MANHATTAN,40.719251,-73.994495
10013,MANHATTAN,40.719018,-73.994589
10013,MANHATTAN,40.719193,-73.996883
10013,MANHATTAN,40.721524,-73.999278
10013,MANHATTAN,40.723687,-74.005372
10012,MANHATTAN,40.720687,-73.995173
10013,MANHATTAN,40.720733,-73.997388
10012,MANHATTAN,40.724183000000004,-74.003196
10013,MANHATTAN,40.725615999999995,-74.005253
10013,MANHATTAN,40.725615999999995,-74.005253
10013,MANHATTAN,40.725615999999995,-74.005253
10013,MANHATTAN,40.725615999999995,-74.005253
10013,MANHATTAN,40.725615999999995,-74.005253
10013,MANHATTAN,40.725615999999995,-74.005253
10013,MANHATTAN,40.725615999999995,-74.005253
10013,MANHATTAN,40.725615999999995,-74.005253
10013,MANHATTAN,40.725615999999995,-74.005253
10013,MANHATTAN,40.725615999999995,-74.005253
10013,MANHATTAN,40.725615999999995,-74.005253
10013,MANHATTAN,40.725615999999995,-74.005253
10013,MANHATTAN,40.725615999999995,-74.005253
10013,MANHATTAN,40.725615999999995,-74.005253
10013,MANHATTAN,40.725615999999995,-74.005253
10013,MANHATTAN,40.725615999999995,-74.005253
10013,MANHATTAN,40.725615999999995,-74.005253
10013,MANHATTAN,40.725615999999995,-74.005253
10013,MANHATTAN,40.725615999999995,-74.005253
10013,MANHATTAN,40.725615999999995,-74.005253
10013,MANHATTAN,40.725615999999995,-74.005253
10013,MANHATTAN,40.725615999999995,-74.005253
10013,MANHATTAN,40.725615999999995,-74.005253
10013,MANHATTAN,40.725615999999995,-74.005253
10013,MANHATTAN,40.725615999999995,-74.005253
10013,MANHATTAN,40.725615999999995,-74.005253
10013,MANHATTAN,40.725615999999995,-74.005253
10013,MANHATTAN,40.725615999999995,-74.005253
10013,MANHATTAN,40.725615999999995,-74.005253
10013,MANHATTAN,40.725615999999995,-74.005253
10013,MANHATTAN,40.725615999999995,-74.005253
10013,MANHATTAN,40.725615999999995,-74.005253
10013,MANHATTAN,40.725615999999995,-74.005253
10013,MANHATTAN,40.725615999999995,-74.005253
10013,MANHATTAN,40.725615999999995,-74.005253
10013,MANHATTAN,40.725615999999995,-74.005253
10013,MANHATTAN,40.725615999999995,-74.005253
10013,MANHATTAN,40.725615999999995,-74.005253
10013,MANHATTAN,40.725615999999995,-74.005253
10013,MANHATTAN,40.725615999999995,-74.005253
10013,MANHATTAN,40.725615999999995,-74.005253
10013,MANHATTAN,40.725615999999995,-74.005253
10013,MANHATTAN,40.725615999999995,-74.005253
10013,MANHATTAN,40.725615999999995,-74.005253
10013,MANHATTAN,40.725615999999995,-74.005253
10013,MANHATTAN,40.725615999999995,-74.005253
10013,MANHATTAN,40.725615999999995,-74.005253
10013,MANHATTAN,40.725615999999995,-74.005253
10013,MANHATTAN,40.725615999999995,-74.005253
10013,MANHATTAN,40.725615999999995,-74.005253
10013,MANHATTAN,40.725615999999995,-74.005253
10013,MANHATTAN,40.725615999999995,-74.005253
10013,MANHATTAN,40.725615999999995,-74.005253
10013,MANHATTAN,40.725615999999995,-74.005253
10013,MANHATTAN,40.725615999999995,-74.005253
10013,MANHATTAN,40.725615999999995,-74.005253
10013,MANHATTAN,40.725615999999995,-74.005253
10013,MANHATTAN,40.725615999999995,-74.005253
10013,MANHATTAN,40.725615999999995,-74.005253
10013,MANHATTAN,40.725615999999995,-74.005253
10013,MANHATTAN,40.725615999999995,-74.005253
10013,MANHATTAN,40.725615999999995,-74.005253
10013,MANHATTAN,40.725615999999995,-74.005253
10013,MANHATTAN,40.725615999999995,-74.005253
10013,MANHATTAN,40.725615999999995,-74.005253
10013,MANHATTAN,40.725615999999995,-74.005253
10013,MANHATTAN,40.725615999999995,-74.005253
10013,MANHATTAN,40.725615999999995,-74.005253
10013,MANHATTAN,40.725615999999995,-74.005253
10013,MANHATTAN,40.725615999999995,-74.005253
10013,MANHATTAN,40.725615999999995,-74.005253
10013,MANHATTAN,40.725615999999995,-74.005253
10013,MANHATTAN,40.725615999999995,-74.005253
10013,MANHATTAN,40.725615999999995,-74.005253
10013,MANHATTAN,40.725615999999995,-74.005253
10013,MANHATTAN,40.725615999999995,-74.005253
10013,MANHATTAN,40.725615999999995,-74.005253
10013,MANHATTAN,40.725615999999995,-74.005253
10013,MANHATTAN,40.725615999999995,-74.005253
10013,MANHATTAN,40.725615999999995,-74.005253
10013,MANHATTAN,40.725615999999995,-74.005253
10013,MANHATTAN,40.725615999999995,-74.005253
10013,MANHATTAN,40.725615999999995,-74.005253
10013,MANHATTAN,40.725615999999995,-74.005253
10013,MANHATTAN,40.725615999999995,-74.005253
10013,MANHATTAN,40.725615999999995,-74.005253
10013,MANHATTAN,40.725615999999995,-74.005253
10013,MANHATTAN,40.725615999999995,-74.005253
10013,MANHATTAN,40.725615999999995,-74.005253
10013,MANHATTAN,40.725615999999995,-74.005253
10013,MANHATTAN,40.725615999999995,-74.005253
10013,MANHATTAN,40.725615999999995,-74.005253
10013,MANHATTAN,40.725615999999995,-74.005253
10013,MANHATTAN,40.725615999999995,-74.005253
10013,MANHATTAN,40.725615999999995,-74.005253
10013,MANHATTAN,40.725615999999995,-74.005253
10013,MANHATTAN,40.725615999999995,-74.005253
10013,MANHATTAN,40.725615999999995,-74.005253
10013,MANHATTAN,40.725615999999995,-74.005253
10013,MANHATTAN,40.725615999999995,-74.005253
10013,MANHATTAN,40.725615999999995,-74.005253
10013,MANHATTAN,40.725615999999995,-74.005253
10013,MANHATTAN,40.725615999999995,-74.005253
10013,MANHATTAN,40.725615999999995,-74.005253
10013,MANHATTAN,40.725615999999995,-74.005253
10013,MANHATTAN,40.725615999999995,-74.005253
10013,MANHATTAN,40.725615999999995,-74.005253
10013,MANHATTAN,40.725615999999995,-74.005253
10013,MANHATTAN,40.725615999999995,-74.005253
10013,MANHATTAN,40.725615999999995,-74.005253
10013,MANHATTAN,40.725615999999995,-74.005253
10013,MANHATTAN,40.725615999999995,-74.005253
10013,MANHATTAN,40.725615999999995,-74.005253
10013,MANHATTAN,40.725615999999995,-74.005253
10013,MANHATTAN,40.725615999999995,-74.005253
10013,MANHATTAN,40.725615999999995,-74.005253
10013,MANHATTAN,40.725615999999995,-74.005253
10013,MANHATTAN,40.725615999999995,-74.005253
10013,MANHATTAN,40.725615999999995,-74.005253
10013,MANHATTAN,40.725615999999995,-74.005253
10013,MANHATTAN,40.725615999999995,-74.005253
10013,MANHATTAN,40.725615999999995,-74.005253
10013,MANHATTAN,40.725615999999995,-74.005253
10013,MANHATTAN,40.725615999999995,-74.005253
10013,MANHATTAN,40.725615999999995,-74.005253
10013,MANHATTAN,40.725615999999995,-74.005253
10013,MANHATTAN,40.725615999999995,-74.005253
10013,MANHATTAN,40.725615999999995,-74.005253
10013,MANHATTAN,40.725615999999995,-74.005253
10013,MANHATTAN,40.725615999999995,-74.005253
10013,MANHATTAN,40.725615999999995,-74.005253
10013,MANHATTAN,40.725615999999995,-74.005253
10013,MANHATTAN,40.725615999999995,-74.005253
10013,MANHATTAN,40.725615999999995,-74.005253
10013,MANHATTAN,40.725615999999995,-74.005253
10013,MANHATTAN,40.725615999999995,-74.005253
10013,MANHATTAN,40.725615999999995,-74.005253
10013,MANHATTAN,40.725615999999995,-74.005253
10013,MANHATTAN,40.725615999999995,-74.005253
10013,MANHATTAN,40.725615999999995,-74.005253
10013,MANHATTAN,40.725615999999995,-74.005253
10013,MANHATTAN,40.725615999999995,-74.005253
10013,MANHATTAN,40.725615999999995,-74.005253
10013,MANHATTAN,40.725615999999995,-74.005253
10013,MANHATTAN,40.725615999999995,-74.005253
10013,MANHATTAN,40.725615999999995,-74.005253
10013,MANHATTAN,40.725615999999995,-74.005253
10013,MANHATTAN,40.725615999999995,-74.005253
10013,MANHATTAN,40.725615999999995,-74.005253
10013,MANHATTAN,40.725615999999995,-74.005253
10013,MANHATTAN,40.725615999999995,-74.005253
10013,MANHATTAN,40.725615999999995,-74.005253
10013,MANHATTAN,40.725615999999995,-74.005253
10013,MANHATTAN,40.725615999999995,-74.005253
10013,MANHATTAN,40.725615999999995,-74.005253
10013,MANHATTAN,40.725615999999995,-74.005253
10013,MANHATTAN,40.725615999999995,-74.005253
10013,MANHATTAN,40.725615999999995,-74.005253
10013,MANHATTAN,40.725615999999995,-74.005253
10013,MANHATTAN,40.725615999999995,-74.005253
10013,MANHATTAN,40.725615999999995,-74.005253
10013,MANHATTAN,40.725615999999995,-74.005253
10013,MANHATTAN,40.725615999999995,-74.005253
10013,MANHATTAN,40.725615999999995,-74.005253
10013,MANHATTAN,40.725615999999995,-74.005253
10013,MANHATTAN,40.725615999999995,-74.005253
10013,MANHATTAN,40.725615999999995,-74.005253
10013,MANHATTAN,40.725615999999995,-74.005253
10013,MANHATTAN,40.725615999999995,-74.005253
10013,MANHATTAN,40.725615999999995,-74.005253
10013,MANHATTAN,40.725615999999995,-74.005253
10013,MANHATTAN,40.725615999999995,-74.005253
10013,MANHATTAN,40.725615999999995,-74.005253
10013,MANHATTAN,40.725615999999995,-74.005253
10013,MANHATTAN,40.725615999999995,-74.005253
10013,MANHATTAN,40.725615999999995,-74.005253
10013,MANHATTAN,40.725615999999995,-74.005253
10013,MANHATTAN,40.725615999999995,-74.005253
10013,MANHATTAN,40.725615999999995,-74.005253
10013,MANHATTAN,40.725615999999995,-74.005253
10013,MANHATTAN,40.725615999999995,-74.005253
10013,MANHATTAN,40.725615999999995,-74.005253
10013,MANHATTAN,40.725615999999995,-74.005253
10013,MANHATTAN,40.725615999999995,-74.005253
10013,MANHATTAN,40.725615999999995,-74.005253
10013,MANHATTAN,40.725615999999995,-74.005253
10013,MANHATTAN,40.725615999999995,-74.005253
10013,MANHATTAN,40.725615999999995,-74.005253
10013,MANHATTAN,40.725615999999995,-74.005253
10013,MANHATTAN,40.725615999999995,-74.005253
10013,MANHATTAN,40.725615999999995,-74.005253
10013,MANHATTAN,40.725615999999995,-74.005253
10013,MANHATTAN,40.725615999999995,-74.005253
10013,MANHATTAN,40.725615999999995,-74.005253
10013,MANHATTAN,40.725615999999995,-74.005253
10013,MANHATTAN,40.725615999999995,-74.005253
10013,MANHATTAN,40.725615999999995,-74.005253
10013,MANHATTAN,40.725615999999995,-74.005253
10013,MANHATTAN,40.725615999999995,-74.005253
10013,MANHATTAN,40.725615999999995,-74.005253
10013,MANHATTAN,40.725615999999995,-74.005253
10013,MANHATTAN,40.725615999999995,-74.005253
10013,MANHATTAN,40.725615999999995,-74.005253
10013,MANHATTAN,40.725615999999995,-74.005253
10013,MANHATTAN,40.725615999999995,-74.005253
10013,MANHATTAN,40.725615999999995,-74.005253
10013,MANHATTAN,40.725615999999995,-74.005253
10013,MANHATTAN,40.725615999999995,-74.005253
10013,MANHATTAN,40.725615999999995,-74.005253
10013,MANHATTAN,40.725615999999995,-74.005253
10013,MANHATTAN,40.725615999999995,-74.005253
10013,MANHATTAN,40.725615999999995,-74.005253
10013,MANHATTAN,40.725615999999995,-74.005253
10013,MANHATTAN,40.725615999999995,-74.005253
10013,MANHATTAN,40.725615999999995,-74.005253
10013,MANHATTAN,40.725615999999995,-74.005253
10013,MANHATTAN,40.725615999999995,-74.005253
10013,MANHATTAN,40.725615999999995,-74.005253
10013,MANHATTAN,40.725615999999995,-74.005253
10013,MANHATTAN,40.725615999999995,-74.005253
10013,MANHATTAN,40.725615999999995,-74.005253
10013,MANHATTAN,40.725615999999995,-74.005253
10013,MANHATTAN,40.725615999999995,-74.005253
10013,MANHATTAN,40.725615999999995,-74.005253
10013,MANHATTAN,40.725615999999995,-74.005253
10013,MANHATTAN,40.725615999999995,-74.005253
10013,MANHATTAN,40.725615999999995,-74.005253
10013,MANHATTAN,40.725615999999995,-74.005253
10013,MANHATTAN,40.725615999999995,-74.005253
10013,MANHATTAN,40.725615999999995,-74.005253
10013,MANHATTAN,40.725615999999995,-74.005253
10013,MANHATTAN,40.725615999999995,-74.005253
10013,MANHATTAN,40.725615999999995,-74.005253
10013,MANHATTAN,40.725615999999995,-74.005253
10013,MANHATTAN,40.725615999999995,-74.005253
10013,MANHATTAN,40.725615999999995,-74.005253
10013,MANHATTAN,40.725615999999995,-74.005253
10013,MANHATTAN,40.725615999999995,-74.005253
10013,MANHATTAN,40.725615999999995,-74.005253
10013,MANHATTAN,40.725615999999995,-74.005253
10013,MANHATTAN,40.725615999999995,-74.005253
10013,MANHATTAN,40.725615999999995,-74.005253
10013,MANHATTAN,40.725615999999995,-74.005253
10013,MANHATTAN,40.725615999999995,-74.005253
10013,MANHATTAN,40.725615999999995,-74.005253
10013,MANHATTAN,40.725615999999995,-74.005253
10013,MANHATTAN,40.725615999999995,-74.005253
10013,MANHATTAN,40.725615999999995,-74.005253
10013,MANHATTAN,40.725615999999995,-74.005253
10013,MANHATTAN,40.725615999999995,-74.005253
10013,MANHATTAN,40.725615999999995,-74.005253
10013,MANHATTAN,40.725615999999995,-74.005253
10013,MANHATTAN,40.725615999999995,-74.005253
10013,MANHATTAN,40.725615999999995,-74.005253
10013,MANHATTAN,40.725615999999995,-74.005253
10013,MANHATTAN,40.725615999999995,-74.005253
10013,MANHATTAN,40.725615999999995,-74.005253
10013,MANHATTAN,40.725615999999995,-74.005253
10013,MANHATTAN,40.725615999999995,-74.005253
10013,MANHATTAN,40.725615999999995,-74.005253
10013,MANHATTAN,40.725615999999995,-74.005253
10013,MANHATTAN,40.725615999999995,-74.005253
10013,MANHATTAN,40.725615999999995,-74.005253
10013,MANHATTAN,40.725615999999995,-74.005253
10013,MANHATTAN,40.725615999999995,-74.005253
10013,MANHATTAN,40.725615999999995,-74.005253
10013,MANHATTAN,40.725615999999995,-74.005253
10013,MANHATTAN,40.725615999999995,-74.005253
10013,MANHATTAN,40.725615999999995,-74.005253
10013,MANHATTAN,40.725615999999995,-74.005253
10013,MANHATTAN,40.725615999999995,-74.005253
10013,MANHATTAN,40.725615999999995,-74.005253
10013,MANHATTAN,40.725615999999995,-74.005253
10013,MANHATTAN,40.725615999999995,-74.005253
10013,MANHATTAN,40.725615999999995,-74.005253
10013,MANHATTAN,40.725615999999995,-74.005253
10013,MANHATTAN,40.725615999999995,-74.005253
10013,MANHATTAN,40.725615999999995,-74.005253
10013,MANHATTAN,40.725615999999995,-74.005253
10013,MANHATTAN,40.725615999999995,-74.005253
10013,MANHATTAN,40.725615999999995,-74.005253
10013,MANHATTAN,40.725615999999995,-74.005253
10013,MANHATTAN,40.725615999999995,-74.005253
10013,MANHATTAN,40.725615999999995,-74.005253
10013,MANHATTAN,40.725615999999995,-74.005253
10013,MANHATTAN,40.725615999999995,-74.005253
10013,MANHATTAN,40.725615999999995,-74.005253
10013,MANHATTAN,40.725615999999995,-74.005253
10013,MANHATTAN,40.725615999999995,-74.005253
10013,MANHATTAN,40.725615999999995,-74.005253
10013,MANHATTAN,40.725615999999995,-74.005253
10013,MANHATTAN,40.725615999999995,-74.005253
10013,MANHATTAN,40.725615999999995,-74.005253
10013,MANHATTAN,40.725615999999995,-74.005253
10013,MANHATTAN,40.725615999999995,-74.005253
10013,MANHATTAN,40.725615999999995,-74.005253
10013,MANHATTAN,40.725615999999995,-74.005253
10013,MANHATTAN,40.725615999999995,-74.005253
10013,MANHATTAN,40.725615999999995,-74.005253
10013,MANHATTAN,40.725615999999995,-74.005253
10013,MANHATTAN,40.725615999999995,-74.005253
10013,MANHATTAN,40.725615999999995,-74.005253
10013,MANHATTAN,40.725615999999995,-74.005253
10013,MANHATTAN,40.725615999999995,-74.005253
10013,MANHATTAN,40.725615999999995,-74.005253
10013,MANHATTAN,40.725615999999995,-74.005253
10013,MANHATTAN,40.725615999999995,-74.005253
10013,MANHATTAN,40.725615999999995,-74.005253
10013,MANHATTAN,40.725615999999995,-74.005253
10013,MANHATTAN,40.725615999999995,-74.005253
10013,MANHATTAN,40.725615999999995,-74.005253
10013,MANHATTAN,40.725615999999995,-74.005253
10013,MANHATTAN,40.725615999999995,-74.005253
10013,MANHATTAN,40.725615999999995,-74.005253
10013,MANHATTAN,40.725615999999995,-74.005253
10013,MANHATTAN,40.725615999999995,-74.005253
10013,MANHATTAN,40.725615999999995,-74.005253
10013,MANHATTAN,40.725615999999995,-74.005253
10013,MANHATTAN,40.725615999999995,-74.005253
10013,MANHATTAN,40.725615999999995,-74.005253
10013,MANHATTAN,40.725615999999995,-74.005253
10013,MANHATTAN,40.725615999999995,-74.005253
10013,MANHATTAN,40.725615999999995,-74.005253
10013,MANHATTAN,40.725615999999995,-74.005253
10013,MANHATTAN,40.725615999999995,-74.005253
10013,MANHATTAN,40.725615999999995,-74.005253
10013,MANHATTAN,40.725615999999995,-74.005253
10013,MANHATTAN,40.725615999999995,-74.005253
10013,MANHATTAN,40.725615999999995,-74.005253
10013,MANHATTAN,40.725615999999995,-74.005253
10013,MANHATTAN,40.725615999999995,-74.005253
10013,MANHATTAN,40.725615999999995,-74.005253
10013,MANHATTAN,40.725615999999995,-74.005253
10013,MANHATTAN,40.725615999999995,-74.005253
10013,MANHATTAN,40.725615999999995,-74.005253
10013,MANHATTAN,40.725615999999995,-74.005253
10013,MANHATTAN,40.725615999999995,-74.005253
10013,MANHATTAN,40.725615999999995,-74.005253
10013,MANHATTAN,40.725615999999995,-74.005253
10013,MANHATTAN,40.725615999999995,-74.005253
10013,MANHATTAN,40.725615999999995,-74.005253
10013,MANHATTAN,40.725615999999995,-74.005253
10013,MANHATTAN,40.725615999999995,-74.005253
10013,MANHATTAN,40.725615999999995,-74.005253
10013,MANHATTAN,40.725615999999995,-74.005253
10013,MANHATTAN,40.725615999999995,-74.005253
10013,MANHATTAN,40.725615999999995,-74.005253
10013,MANHATTAN,40.725615999999995,-74.005253
10013,MANHATTAN,40.725615999999995,-74.005253
10013,MANHATTAN,40.725615999999995,-74.005253
10013,MANHATTAN,40.725615999999995,-74.005253
10013,MANHATTAN,40.725615999999995,-74.005253
10013,MANHATTAN,40.725615999999995,-74.005253
10013,MANHATTAN,40.725615999999995,-74.005253
10013,MANHATTAN,40.725615999999995,-74.005253
10013,MANHATTAN,40.725615999999995,-74.005253
10013,MANHATTAN,40.725615999999995,-74.005253
10013,MANHATTAN,40.725615999999995,-74.005253
10013,MANHATTAN,40.725615999999995,-74.005253
10013,MANHATTAN,40.725615999999995,-74.005253
10013,MANHATTAN,40.725615999999995,-74.005253
10013,MANHATTAN,40.725615999999995,-74.005253
10013,MANHATTAN,40.725615999999995,-74.005253
10013,MANHATTAN,40.725615999999995,-74.005253
10013,MANHATTAN,40.725615999999995,-74.005253
10013,MANHATTAN,40.725615999999995,-74.005253
10013,MANHATTAN,40.725615999999995,-74.005253
10013,MANHATTAN,40.725615999999995,-74.005253
10013,MANHATTAN,40.725615999999995,-74.005253
10013,MANHATTAN,40.725615999999995,-74.005253
10013,MANHATTAN,40.725615999999995,-74.005253
10013,MANHATTAN,40.725615999999995,-74.005253
10013,MANHATTAN,40.725615999999995,-74.005253
10013,MANHATTAN,40.725615999999995,-74.005253
10013,MANHATTAN,40.725615999999995,-74.005253
10013,MANHATTAN,40.725615999999995,-74.005253
10013,MANHATTAN,40.725615999999995,-74.005253
10013,MANHATTAN,40.725615999999995,-74.005253
10013,MANHATTAN,40.725615999999995,-74.005253
10013,MANHATTAN,40.725615999999995,-74.005253
10013,MANHATTAN,40.725615999999995,-74.005253
10013,MANHATTAN,40.725615999999995,-74.005253
10013,MANHATTAN,40.725615999999995,-74.005253
10013,MANHATTAN,40.725615999999995,-74.005253
10013,MANHATTAN,40.725615999999995,-74.005253
10013,MANHATTAN,40.725615999999995,-74.005253
10013,MANHATTAN,40.725615999999995,-74.005253
10013,MANHATTAN,40.725615999999995,-74.005253
10013,MANHATTAN,40.725615999999995,-74.005253
10013,MANHATTAN,40.725615999999995,-74.005253
10013,MANHATTAN,40.725615999999995,-74.005253
10012,MANHATTAN,40.721891,-73.993445
10012,MANHATTAN,40.722954,-73.99772
10012,MANHATTAN,40.724697,-73.998694
10012,MANHATTAN,40.726022,-73.99194
10012,MANHATTAN,40.728281,-73.995501
10012,MANHATTAN,40.729113,-73.997507
10012,MANHATTAN,40.730236,-74.000274
10003,MANHATTAN,40.729744000000004,-73.996399
10003,MANHATTAN,40.729651000000004,-73.995068
10003,MANHATTAN,40.730925,-73.995364
10003,MANHATTAN,40.731913,-73.996587
10003,MANHATTAN,40.732083,-73.99596600000001
10003,MANHATTAN,40.731984000000004,-73.99573199999999
10003,MANHATTAN,40.731918,-73.995576
10003,MANHATTAN,40.731885,-73.995497
10003,MANHATTAN,40.731819,-73.99534200000001
10011,MANHATTAN,40.731408,-73.999307
10011,MANHATTAN,40.73127,-73.999423
10011,MANHATTAN,40.731821999999994,-73.99895699999999
10011,MANHATTAN,40.73236,-73.998889
10003,MANHATTAN,40.73183,-73.989836
10003,MANHATTAN,40.732490999999996,-73.989428
10003,MANHATTAN,40.732475,-73.989345
10003,MANHATTAN,40.734122,-73.98917900000001
10003,MANHATTAN,40.733801,-73.988407
10003,MANHATTAN,40.731846999999995,-73.99144100000001
10003,MANHATTAN,40.733233,-73.989944
10003,MANHATTAN,40.733521,-73.995414
10003,MANHATTAN,40.735879,-73.993335
10011,MANHATTAN,40.732396,-73.99667
10011,MANHATTAN,40.734495,-73.996128
10011,MANHATTAN,40.736024,-73.995829
10011,MANHATTAN,40.736655999999996,-73.995186
10014,MANHATTAN,40.727222,-74.00631
10014,MANHATTAN,40.727581,-74.005488
10013,MANHATTAN,40.724145,-74.008522
10013,MANHATTAN,40.726365,-74.009023
10014,MANHATTAN,40.731177,-74.007988
10014,MANHATTAN,40.732077000000004,-74.010374
10011,MANHATTAN,40.736979999999996,-73.998098
10014,MANHATTAN,40.736067999999996,-74.00439899999999
10014,MANHATTAN,40.737814,-74.004518
10014,MANHATTAN,40.737858,-74.004467
10014,MANHATTAN,40.739919,-74.006106
10014,MANHATTAN,40.733252,-74.010262
10014,MANHATTAN,40.738153999999994,-74.009025
10014,MANHATTAN,40.740624,-74.007719
10014,MANHATTAN,40.740369,-74.005799
10014,MANHATTAN,40.742172,-74.008282
10011,MANHATTAN,40.748988,-74.00694
10001,MANHATTAN,40.750662,-74.00343199999999
10001,,,
10018,MANHATTAN,40.757615,-73.998509
10011,MANHATTAN,40.746216,-74.005229
10011,MANHATTAN,40.746216,-74.005229
10001,MANHATTAN,40.751672,-73.998141
10001,MANHATTAN,40.753281,-73.998145
10001,MANHATTAN,40.754351,-73.99858499999999
10001,MANHATTAN,40.755062,-73.998787
10018,MANHATTAN,40.755438,-73.997217
10018,MANHATTAN,40.755615999999996,-73.997592
10018,MANHATTAN,40.75613,-73.99431899999999
10014,MANHATTAN,40.740185,-74.003529
10014,MANHATTAN,40.740133,-74.003403
10011,MANHATTAN,40.741802,-74.003244
10011,MANHATTAN,40.742233,-74.002494
10011,MANHATTAN,40.743596999999994,-74.000281
10011,MANHATTAN,40.744443,-73.999116
10011,MANHATTAN,40.744956,-73.999769
10001,MANHATTAN,40.749272999999995,-73.99625
10001,MANHATTAN,40.750215000000004,-73.996521
10001,MANHATTAN,40.749767,-73.99524
10001,MANHATTAN,40.751915999999994,-73.994857
10001,MANHATTAN,40.752295000000004,-73.993402
10001,MANHATTAN,40.75342,-73.994294
10001,MANHATTAN,40.753248,-73.993886
10018,MANHATTAN,40.753824,-73.993362
10018,MANHATTAN,40.753909,-73.993564
10018,MANHATTAN,40.75398,-73.993723
10018,MANHATTAN,40.754011,-73.993756
10018,MANHATTAN,40.753978000000004,-73.993673
10018,MANHATTAN,40.753626000000004,-73.99243100000001
10018,MANHATTAN,40.754366999999995,-73.992752
10018,MANHATTAN,40.754488,-73.993037
10018,MANHATTAN,40.754332,-73.992622
10018,MANHATTAN,40.755325,-73.993066
10018,MANHATTAN,40.755169,-73.99270200000001
10018,MANHATTAN,40.755097,-73.991363
10018,MANHATTAN,40.755827000000004,-73.99238000000001
10018,MANHATTAN,40.755932,-73.992626
10018,MANHATTAN,40.755877000000005,-73.992453
10018,MANHATTAN,40.75586,-73.992413
10018,MANHATTAN,40.755825,-73.99233000000001
10018,MANHATTAN,40.755602,-73.991803
10018,MANHATTAN,40.755553000000006,-73.99168
10018,MANHATTAN,40.756209000000005,-73.991359
10018,MANHATTAN,40.756343,-73.99168399999999
10018,MANHATTAN,40.756378999999995,-73.99176700000001
10018,MANHATTAN,40.756412,-73.991846
10018,MANHATTAN,40.756481,-73.992009
10018,MANHATTAN,40.756516,-73.992088
10011,MANHATTAN,40.742834,-73.998427
10011,MANHATTAN,40.744305,-73.996157
10011,MANHATTAN,40.744407,-73.996402
10001,MANHATTAN,40.746896,-73.994489
10001,MANHATTAN,40.747124,-73.995023
10001,MANHATTAN,40.747195,-73.995193
10001,MANHATTAN,40.748301,-73.993987
10001,MANHATTAN,40.748765,-73.995947
10001,MANHATTAN,40.751985,-73.99093
10001,MANHATTAN,40.752119,-73.99120400000001
10018,MANHATTAN,40.754315000000005,-73.99067
10018,MANHATTAN,40.755369,-73.989374
10018,MANHATTAN,40.755852000000004,-73.990785
10011,MANHATTAN,40.74335,-73.993833
10011,MANHATTAN,40.743808,-73.992912
10011,MANHATTAN,40.74408,-73.993558
10001,MANHATTAN,40.744461,-73.992544
10011,MANHATTAN,40.743858,-73.99298399999999
10001,MANHATTAN,40.744871,-73.993515
10001,MANHATTAN,40.745422,-73.99290500000001
10001,MANHATTAN,40.744596,-73.992818
10001,MANHATTAN,40.745175,-73.992277
10001,MANHATTAN,40.745867,-73.99205
10001,MANHATTAN,40.746468,-73.993912
10001,MANHATTAN,40.74635,-73.991274
10001,MANHATTAN,40.746484,-73.991598
10001,MANHATTAN,40.746553000000006,-73.991761
10001,MANHATTAN,40.746449,-73.991465
10001,MANHATTAN,40.746413000000004,-73.991382
10001,MANHATTAN,40.746396000000004,-73.991342
10001,MANHATTAN,40.746259,-73.991017
10001,MANHATTAN,40.746237,-73.990736
10001,MANHATTAN,40.747036,-73.990988
10001,MANHATTAN,40.746805,-73.989974
10001,MANHATTAN,40.747752,-73.990728
10001,MANHATTAN,40.748208,-73.98992
10001,MANHATTAN,40.748806,-73.992204
10001,MANHATTAN,40.749794,-73.991486
10018,MANHATTAN,40.752465,-73.989544
10018,MANHATTAN,40.753029999999995,-73.985732
10018,MANHATTAN,40.753313,-73.98635999999999
10011,MANHATTAN,40.738566,-73.99379300000001
10010,MANHATTAN,40.742823,-73.990538
10010,MANHATTAN,40.742696,-73.99024200000001
10010,MANHATTAN,40.743333,-73.989885
10001,MANHATTAN,40.74391,-73.98899999999999
10001,MANHATTAN,40.74431,-73.988924
10001,MANHATTAN,40.744821,-73.989527
10001,MANHATTAN,40.744821,-73.988805
10001,MANHATTAN,40.745474,-73.989148
10001,MANHATTAN,40.7454,-73.98871899999999
10001,MANHATTAN,40.744821,-73.987207
10001,MANHATTAN,40.745608000000004,-73.988661
10001,MANHATTAN,40.746149,-73.988877
10001,MANHATTAN,40.746223,-73.98905400000001
10001,MANHATTAN,40.746635,-73.988491
10001,MANHATTAN,40.746286,-73.986142
10001,MANHATTAN,40.746712,-73.98638299999999
10001,MANHATTAN,40.747122999999995,-73.98736099999999
10001,MANHATTAN,40.747074,-73.988386
10001,MANHATTAN,40.746956,-73.986917
10001,MANHATTAN,40.747381,-73.986051
10001,MANHATTAN,40.7484,-73.98814399999999
10001,MANHATTAN,40.747686,-73.98673000000001
10001,MANHATTAN,40.747465999999996,-73.98621
10001,MANHATTAN,40.749717,-73.985567
10001,MANHATTAN,40.750316,-73.987379
10001,MANHATTAN,40.750485999999995,-73.987256
10001,MANHATTAN,40.749986,-73.986159
10001,MANHATTAN,40.74992,-73.98600400000001
10001,MANHATTAN,40.749765999999994,-73.985636
10018,MANHATTAN,40.750494,-73.985473
10018,MANHATTAN,40.750571,-73.985661
10018,MANHATTAN,40.750603999999996,-73.985736
10018,MANHATTAN,40.750667,-73.985884
10018,MANHATTAN,40.750559,-73.983708
10018,MANHATTAN,40.750038,-73.983409
10018,MANHATTAN,40.750038,-73.983409
10018,MANHATTAN,40.751114,-73.985025
10018,MANHATTAN,40.750864,-73.98439
10018,MANHATTAN,40.750826,-73.984296
10018,MANHATTAN,40.750746,-73.984112
10018,MANHATTAN,40.75065,-73.98388100000001
10018,MANHATTAN,40.751473,-73.983964
10018,MANHATTAN,40.752404,-73.985866
10018,MANHATTAN,40.751773,-73.984628
10018,MANHATTAN,40.751597,-73.984213
10018,MANHATTAN,40.751424,-73.983798
10018,MANHATTAN,40.751344,-73.983614
10018,MANHATTAN,40.75233,-73.984076
10018,MANHATTAN,40.753046000000005,-73.983859
10018,MANHATTAN,40.752505,-73.982574
10003,MANHATTAN,40.736139,-73.99104399999999
10003,MANHATTAN,40.738865000000004,-73.98986
10010,MANHATTAN,40.740909,-73.98794699999999
10016,MANHATTAN,40.743843,-73.987196
10016,MANHATTAN,40.743487,-73.986088
10016,MANHATTAN,40.744269,-73.985518
10016,MANHATTAN,40.743805,-73.983739
10005,MANHATTAN,40.744721999999996,-73.985489
10016,MANHATTAN,40.745111,-73.984503
10016,MANHATTAN,40.745512,-73.985449
10016,MANHATTAN,40.744704999999996,-73.983082
10016,MANHATTAN,40.745693,-73.984453
10016,MANHATTAN,40.746083,-73.984897
10016,MANHATTAN,40.746212,-73.985203
10016,MANHATTAN,40.746206,-73.98514200000001
10016,MANHATTAN,40.746324,-73.98355
10016,MANHATTAN,40.746334999999995,-73.983579
10016,MANHATTAN,40.746786,-73.984651
10016,MANHATTAN,40.746327,-73.983514
10016,MANHATTAN,40.7476,-73.982586
10016,MANHATTAN,40.746895,-73.98294399999999
10016,MANHATTAN,40.749193,-73.984001
10016,MANHATTAN,40.749878,-73.981406
10016,MANHATTAN,40.749461,-73.979619
10016,MANHATTAN,40.750002,-73.98131500000001
10016,MANHATTAN,40.750004,-73.980435
10016,MANHATTAN,40.749759999999995,-73.979403
10016,MANHATTAN,40.750636,-73.980063
10016,MANHATTAN,40.751141,-73.981254
10016,MANHATTAN,40.750652,-73.980052
10003,MANHATTAN,40.736644,-73.98894399999999
10003,MANHATTAN,40.736098,-73.987215
10003,MANHATTAN,40.737679,-73.986234
10010,MANHATTAN,40.738315,-73.98561600000001
10010,MANHATTAN,40.739416,-73.984498
10010,MANHATTAN,40.73935,-73.982787
10010,MANHATTAN,40.739298,-73.982823
10010,MANHATTAN,40.740590999999995,-73.985237
10010,MANHATTAN,40.739973,-73.98232900000001
10010,MANHATTAN,40.741043,-73.98361700000001
10016,MANHATTAN,40.742218,-73.984872
10016,MANHATTAN,40.74283,-73.982912
10016,MANHATTAN,40.744178000000005,-73.98344300000001
10016,MANHATTAN,40.743790999999995,-73.983237
10016,MANHATTAN,40.743511,-73.982573
10016,MANHATTAN,40.743969,-73.981483
10016,MANHATTAN,40.744762,-73.98175400000001
10016,MANHATTAN,40.745465,-73.981512
10016,MANHATTAN,40.747432,-73.97689100000001
10016,MANHATTAN,40.748607,-73.978104
10016,MANHATTAN,40.749631,-73.97766999999999
10016,MANHATTAN,40.749779,-73.978024
10016,MANHATTAN,40.74937,-73.97699899999999
10016,MANHATTAN,40.749318,-73.976873
10016,MANHATTAN,40.749952,-73.976519
10016,MANHATTAN,40.750402,-73.977591
10003,MANHATTAN,40.733391,-73.98709699999999
10003,MANHATTAN,40.733106,-73.986711
10003,MANHATTAN,40.733638,-73.98585200000001
10003,MANHATTAN,40.734761,-73.984711
10010,MANHATTAN,40.738603000000005,-73.982582
10010,MANHATTAN,40.739585999999996,-73.982589
10003,MANHATTAN,40.732189,-73.984539
10003,MANHATTAN,40.732592,-73.983417
10010,MANHATTAN,40.737826,-73.978717
10010,MANHATTAN,40.73877,-73.979045
10010,MANHATTAN,40.738797,-73.979114
10010,MANHATTAN,40.739118,-73.977941
10016,MANHATTAN,40.742233,-73.974659
10036,MANHATTAN,40.754529,-73.985458
10036,MANHATTAN,40.755569,-73.986465
10036,MANHATTAN,40.755338,-73.985313
10036,MANHATTAN,40.756021999999994,-73.984808
10036,MANHATTAN,40.755873,-73.984454
10036,MANHATTAN,40.756461,-73.983952
10036,MANHATTAN,40.75654,-73.98414
10036,MANHATTAN,40.75673,-73.984548
10036,MANHATTAN,40.75657,-73.984169
10036,MANHATTAN,40.756491,-73.983977
10036,MANHATTAN,40.757218,-73.983786
10036,MANHATTAN,40.757267999999996,-73.98385400000001
10036,MANHATTAN,40.757163,-73.983613
10036,MANHATTAN,40.757114,-73.983494
10036,MANHATTAN,40.757026,-73.98329100000001
10036,MANHATTAN,40.757781,-73.983197
10036,MANHATTAN,40.757811,-73.98323
10036,MANHATTAN,40.758428,-73.982789
10036,MANHATTAN,40.758461,-73.982869
10036,MANHATTAN,40.759055,-73.98470999999999
10036,MANHATTAN,40.759055,-73.98470999999999
10036,MANHATTAN,40.759055,-73.98470999999999
10036,MANHATTAN,40.759293,-73.984543
10036,MANHATTAN,40.758678,-73.98334200000001
10036,MANHATTAN,40.758577,-73.9831
10036,MANHATTAN,40.759293,-73.982854
10019,MANHATTAN,40.759797999999996,-73.98217199999999
10019,MANHATTAN,40.761431,-73.98214200000001
10019,MANHATTAN,40.762674,-73.982095
10019,MANHATTAN,40.762218,-73.97874200000001
10019,MANHATTAN,40.762218,-73.97874200000001
10019,MANHATTAN,40.762218,-73.97874200000001
10019,MANHATTAN,40.762218,-73.97874200000001
10019,MANHATTAN,40.762218,-73.97874200000001
10019,MANHATTAN,40.763245,-73.980582
10019,MANHATTAN,40.76358,-73.979474
10019,MANHATTAN,40.764313,-73.980903
10019,MANHATTAN,40.764559999999996,-73.979867
10019,MANHATTAN,40.764074,-73.978669
10019,MANHATTAN,40.764455,-73.977532
10019,MANHATTAN,40.764688,-73.978095
10019,MANHATTAN,40.764705,-73.978084
10019,MANHATTAN,40.764427000000005,-73.977131
10019,MANHATTAN,40.765668,-73.97831500000001
10019,MANHATTAN,40.765205,-73.979279
10019,MANHATTAN,40.766256,-73.97949100000001
10019,MANHATTAN,40.766613,-73.978473
10019,MANHATTAN,40.766613,-73.978473
10019,MANHATTAN,40.766613,-73.978473
10018,MANHATTAN,40.754971000000005,-73.988392
10036,MANHATTAN,40.755596999999995,-73.987999
10036,MANHATTAN,40.755717,-73.98828
10036,MANHATTAN,40.756747,-73.988659
10036,MANHATTAN,40.757309,-73.98790100000001
10036,MANHATTAN,40.757482,-73.988309
10036,MANHATTAN,40.758663,-73.988738
10036,MANHATTAN,40.758267,-73.98546800000001
10036,MANHATTAN,40.759132,-73.98634799999999
10036,MANHATTAN,40.759008,-73.986052
10036,MANHATTAN,40.759246999999995,-73.985168
10036,MANHATTAN,40.760453999999996,-73.98565500000001
10036,MANHATTAN,40.75931,-73.98485699999999
10036,MANHATTAN,40.760375,-73.985189
10019,MANHATTAN,40.761014,-73.985052
10019,MANHATTAN,40.761124,-73.985312
10019,MANHATTAN,40.761127,-73.98694
10019,MANHATTAN,40.761613,-73.984521
10019,MANHATTAN,40.761654,-73.984619
10019,MANHATTAN,40.761102,-73.985218
10019,MANHATTAN,40.761102,-73.985218
10019,MANHATTAN,40.762164,-73.983575
10019,MANHATTAN,40.762159000000004,-73.98355699999999
10019,MANHATTAN,40.763781,-73.982611
10019,MANHATTAN,40.764264000000004,-73.982997
10019,MANHATTAN,40.764538,-73.982279
10019,MANHATTAN,40.764291,-73.982824
10019,MANHATTAN,40.764953000000006,-73.98270500000001
10019,MANHATTAN,40.765665999999996,-73.982499
10019,MANHATTAN,40.765782,-73.98354599999999
10019,MANHATTAN,40.764521,-73.980773
10019,MANHATTAN,40.764521,-73.980773
10019,MANHATTAN,40.764521,-73.980773
10019,MANHATTAN,40.764521,-73.980773
10019,MANHATTAN,40.764521,-73.980773
10019,MANHATTAN,40.764521,-73.980773
10019,MANHATTAN,40.764521,-73.980773
10019,MANHATTAN,40.764521,-73.980773
10019,MANHATTAN,40.764521,-73.980773
10019,MANHATTAN,40.764521,-73.980773
10019,MANHATTAN,40.764521,-73.980773
10019,MANHATTAN,40.764521,-73.980773
10019,MANHATTAN,40.764521,-73.980773
10019,MANHATTAN,40.764521,-73.980773
10019,MANHATTAN,40.764521,-73.980773
10019,MANHATTAN,40.764521,-73.980773
10019,MANHATTAN,40.764521,-73.980773
10019,MANHATTAN,40.764521,-73.980773
10019,MANHATTAN,40.764521,-73.980773
10019,MANHATTAN,40.764521,-73.980773
10019,MANHATTAN,40.764521,-73.980773
10019,MANHATTAN,40.764928000000005,-73.980752
10019,MANHATTAN,40.764928000000005,-73.980752
10019,MANHATTAN,40.764928000000005,-73.980752
10019,MANHATTAN,40.764928000000005,-73.980752
10019,MANHATTAN,40.764928000000005,-73.980752
10019,MANHATTAN,40.764928000000005,-73.980752
10019,MANHATTAN,40.764928000000005,-73.980752
10019,MANHATTAN,40.764928000000005,-73.980752
10019,MANHATTAN,40.764928000000005,-73.980752
10019,MANHATTAN,40.764928000000005,-73.980752
10019,MANHATTAN,40.764928000000005,-73.980752
10019,MANHATTAN,40.764928000000005,-73.980752
10019,MANHATTAN,40.764928000000005,-73.980752
10019,MANHATTAN,40.764928000000005,-73.980752
10019,MANHATTAN,40.764928000000005,-73.980752
10019,MANHATTAN,40.764928000000005,-73.980752
10019,MANHATTAN,40.764928000000005,-73.980752
10019,MANHATTAN,40.764928000000005,-73.980752
10019,MANHATTAN,40.764928000000005,-73.980752
10019,MANHATTAN,40.764928000000005,-73.980752
10019,MANHATTAN,40.764928000000005,-73.980752
10019,MANHATTAN,40.764928000000005,-73.980752
10019,MANHATTAN,40.764928000000005,-73.980752
10019,MANHATTAN,40.764928000000005,-73.980752
10019,MANHATTAN,40.764928000000005,-73.980752
10019,MANHATTAN,40.764928000000005,-73.980752
10019,MANHATTAN,40.764928000000005,-73.980752
10019,MANHATTAN,40.764928000000005,-73.980752
10019,MANHATTAN,40.764928000000005,-73.980752
10019,MANHATTAN,40.764928000000005,-73.980752
10019,MANHATTAN,40.764928000000005,-73.980752
10019,MANHATTAN,40.764928000000005,-73.980752
10019,MANHATTAN,40.764928000000005,-73.980752
10019,MANHATTAN,40.764928000000005,-73.980752
10019,MANHATTAN,40.764928000000005,-73.980752
10019,MANHATTAN,40.764928000000005,-73.980752
10019,MANHATTAN,40.764928000000005,-73.980752
10019,MANHATTAN,40.764928000000005,-73.980752
10019,MANHATTAN,40.764928000000005,-73.980752
10019,MANHATTAN,40.764928000000005,-73.980752
10019,MANHATTAN,40.764928000000005,-73.980752
10019,MANHATTAN,40.764928000000005,-73.980752
10019,MANHATTAN,40.764928000000005,-73.980752
10019,MANHATTAN,40.764928000000005,-73.980752
10019,MANHATTAN,40.764928000000005,-73.980752
10019,MANHATTAN,40.764928000000005,-73.980752
10019,MANHATTAN,40.764928000000005,-73.980752
10019,MANHATTAN,40.764928000000005,-73.980752
10019,MANHATTAN,40.764928000000005,-73.980752
10019,MANHATTAN,40.764928000000005,-73.980752
10019,MANHATTAN,40.764928000000005,-73.980752
10019,MANHATTAN,40.764928000000005,-73.980752
10019,MANHATTAN,40.764928000000005,-73.980752
10019,MANHATTAN,40.764928000000005,-73.980752
10019,MANHATTAN,40.764928000000005,-73.980752
10019,MANHATTAN,40.764928000000005,-73.980752
10019,MANHATTAN,40.764928000000005,-73.980752
10019,MANHATTAN,40.764928000000005,-73.980752
10019,MANHATTAN,40.764928000000005,-73.980752
10019,MANHATTAN,40.764928000000005,-73.980752
10019,MANHATTAN,40.764928000000005,-73.980752
10019,MANHATTAN,40.764521,-73.980773
10019,MANHATTAN,40.764521,-73.980773
10019,MANHATTAN,40.764521,-73.980773
10019,MANHATTAN,40.764521,-73.980773
10019,MANHATTAN,40.764521,-73.980773
10019,MANHATTAN,40.764521,-73.980773
10019,MANHATTAN,40.764521,-73.980773
10019,MANHATTAN,40.764521,-73.980773
10019,MANHATTAN,40.764521,-73.980773
10019,MANHATTAN,40.764521,-73.980773
10019,MANHATTAN,40.764521,-73.980773
10019,MANHATTAN,40.764521,-73.980773
10019,MANHATTAN,40.764521,-73.980773
10019,MANHATTAN,40.764521,-73.980773
10019,MANHATTAN,40.764521,-73.980773
10019,MANHATTAN,40.764521,-73.980773
10019,MANHATTAN,40.764521,-73.980773
10019,MANHATTAN,40.764521,-73.980773
10019,MANHATTAN,40.764521,-73.980773
10019,MANHATTAN,40.764521,-73.980773
10019,MANHATTAN,40.764521,-73.980773
10019,MANHATTAN,40.764521,-73.980773
10019,MANHATTAN,40.764521,-73.980773
10019,MANHATTAN,40.764521,-73.980773
10019,MANHATTAN,40.764521,-73.980773
10019,MANHATTAN,40.764521,-73.980773
10019,MANHATTAN,40.764521,-73.980773
10019,MANHATTAN,40.764521,-73.980773
10019,MANHATTAN,40.764521,-73.980773
10019,MANHATTAN,40.764521,-73.980773
10019,MANHATTAN,40.764521,-73.980773
10019,MANHATTAN,40.764521,-73.980773
10019,MANHATTAN,40.764521,-73.980773
10019,MANHATTAN,40.764521,-73.980773
10019,MANHATTAN,40.764521,-73.980773
10019,MANHATTAN,40.764521,-73.980773
10019,MANHATTAN,40.764521,-73.980773
10019,MANHATTAN,40.764521,-73.980773
10019,MANHATTAN,40.764521,-73.980773
10019,MANHATTAN,40.764521,-73.980773
10019,MANHATTAN,40.764521,-73.980773
10019,MANHATTAN,40.764521,-73.980773
10019,MANHATTAN,40.764521,-73.980773
10019,MANHATTAN,40.764521,-73.980773
10019,MANHATTAN,40.764521,-73.980773
10019,MANHATTAN,40.764521,-73.980773
10019,MANHATTAN,40.764521,-73.980773
10019,MANHATTAN,40.764521,-73.980773
10019,MANHATTAN,40.764521,-73.980773
10019,MANHATTAN,40.764521,-73.980773
10019,MANHATTAN,40.764521,-73.980773
10019,MANHATTAN,40.764521,-73.980773
10019,MANHATTAN,40.764521,-73.980773
10019,MANHATTAN,40.764521,-73.980773
10019,MANHATTAN,40.764521,-73.980773
10019,MANHATTAN,40.764521,-73.980773
10019,MANHATTAN,40.764521,-73.980773
10019,MANHATTAN,40.764521,-73.980773
10019,MANHATTAN,40.764521,-73.980773
10019,MANHATTAN,40.764521,-73.980773
10019,MANHATTAN,40.764521,-73.980773
10019,MANHATTAN,40.764521,-73.980773
10019,MANHATTAN,40.764521,-73.980773
10019,MANHATTAN,40.764521,-73.980773
10019,MANHATTAN,40.764521,-73.980773
10019,MANHATTAN,40.764521,-73.980773
10019,MANHATTAN,40.764521,-73.980773
10019,MANHATTAN,40.764521,-73.980773
10019,MANHATTAN,40.764521,-73.980773
10019,MANHATTAN,40.764521,-73.980773
10019,MANHATTAN,40.764521,-73.980773
10019,MANHATTAN,40.764521,-73.980773
10019,MANHATTAN,40.764521,-73.980773
10019,MANHATTAN,40.764521,-73.980773
10019,MANHATTAN,40.764521,-73.980773
10019,MANHATTAN,40.764521,-73.980773
10019,MANHATTAN,40.764521,-73.980773
10019,MANHATTAN,40.764521,-73.980773
10019,MANHATTAN,40.764521,-73.980773
10019,MANHATTAN,40.764521,-73.980773
10019,MANHATTAN,40.764521,-73.980773
10019,MANHATTAN,40.764521,-73.980773
10019,MANHATTAN,40.764521,-73.980773
10019,MANHATTAN,40.764521,-73.980773
10019,MANHATTAN,40.764521,-73.980773
10019,MANHATTAN,40.764521,-73.980773
10019,MANHATTAN,40.764521,-73.980773
10019,MANHATTAN,40.764521,-73.980773
10019,MANHATTAN,40.764521,-73.980773
10019,MANHATTAN,40.764521,-73.980773
10019,MANHATTAN,40.764521,-73.980773
10019,MANHATTAN,40.764521,-73.980773
10019,MANHATTAN,40.764521,-73.980773
10019,MANHATTAN,40.764521,-73.980773
10019,MANHATTAN,40.764521,-73.980773
10019,MANHATTAN,40.764521,-73.980773
10019,MANHATTAN,40.764521,-73.980773
10019,MANHATTAN,40.764521,-73.980773
10019,MANHATTAN,40.764521,-73.980773
10019,MANHATTAN,40.764521,-73.980773
10019,MANHATTAN,40.764521,-73.980773
10019,MANHATTAN,40.764521,-73.980773
10019,MANHATTAN,40.764521,-73.980773
10019,MANHATTAN,40.764521,-73.980773
10019,MANHATTAN,40.764521,-73.980773
10019,MANHATTAN,40.764521,-73.980773
10019,MANHATTAN,40.764521,-73.980773
10019,MANHATTAN,40.764521,-73.980773
10019,MANHATTAN,40.764521,-73.980773
10019,MANHATTAN,40.764521,-73.980773
10019,MANHATTAN,40.764521,-73.980773
10019,MANHATTAN,40.764521,-73.980773
10019,MANHATTAN,40.764521,-73.980773
10019,MANHATTAN,40.764521,-73.980773
10019,MANHATTAN,40.764521,-73.980773
10019,MANHATTAN,40.764521,-73.980773
10019,MANHATTAN,40.764521,-73.980773
10019,MANHATTAN,40.764521,-73.980773
10019,MANHATTAN,40.764521,-73.980773
10019,MANHATTAN,40.764521,-73.980773
10019,MANHATTAN,40.764521,-73.980773
10019,MANHATTAN,40.764521,-73.980773
10019,MANHATTAN,40.764521,-73.980773
10019,MANHATTAN,40.764521,-73.980773
10019,MANHATTAN,40.764521,-73.980773
10019,MANHATTAN,40.764521,-73.980773
10019,MANHATTAN,40.764521,-73.980773
10019,MANHATTAN,40.764521,-73.980773
10019,MANHATTAN,40.764521,-73.980773
10019,MANHATTAN,40.764521,-73.980773
10019,MANHATTAN,40.764521,-73.980773
10019,MANHATTAN,40.764521,-73.980773
10019,MANHATTAN,40.764521,-73.980773
10019,MANHATTAN,40.764521,-73.980773
10019,MANHATTAN,40.764521,-73.980773
10019,MANHATTAN,40.764521,-73.980773
10019,MANHATTAN,40.764521,-73.980773
10019,MANHATTAN,40.764521,-73.980773
10019,MANHATTAN,40.764521,-73.980773
10019,MANHATTAN,40.764521,-73.980773
10019,MANHATTAN,40.764521,-73.980773
10019,MANHATTAN,40.764521,-73.980773
10019,MANHATTAN,40.764521,-73.980773
10019,MANHATTAN,40.764521,-73.980773
10019,MANHATTAN,40.764521,-73.980773
10019,MANHATTAN,40.764521,-73.980773
10019,MANHATTAN,40.764521,-73.980773
10019,MANHATTAN,40.764521,-73.980773
10019,MANHATTAN,40.764521,-73.980773
10019,MANHATTAN,40.764521,-73.980773
10019,MANHATTAN,40.764521,-73.980773
10019,MANHATTAN,40.764521,-73.980773
10019,MANHATTAN,40.764521,-73.980773
10019,MANHATTAN,40.764521,-73.980773
10019,MANHATTAN,40.764521,-73.980773
10019,MANHATTAN,40.764521,-73.980773
10019,MANHATTAN,40.764521,-73.980773
10019,MANHATTAN,40.764521,-73.980773
10019,MANHATTAN,40.764521,-73.980773
10019,MANHATTAN,40.764521,-73.980773
10019,MANHATTAN,40.764521,-73.980773
10019,MANHATTAN,40.764521,-73.980773
10019,MANHATTAN,40.764521,-73.980773
10019,MANHATTAN,40.764521,-73.980773
10019,MANHATTAN,40.764521,-73.980773
10019,MANHATTAN,40.764521,-73.980773
10019,MANHATTAN,40.764521,-73.980773
10019,MANHATTAN,40.764521,-73.980773
10019,MANHATTAN,40.764521,-73.980773
10019,MANHATTAN,40.764521,-73.980773
10019,MANHATTAN,40.764521,-73.980773
10019,MANHATTAN,40.764521,-73.980773
10019,MANHATTAN,40.764521,-73.980773
10019,MANHATTAN,40.764521,-73.980773
10019,MANHATTAN,40.764521,-73.980773
10019,MANHATTAN,40.764521,-73.980773
10019,MANHATTAN,40.764521,-73.980773
10019,MANHATTAN,40.764521,-73.980773
10019,MANHATTAN,40.764521,-73.980773
10019,MANHATTAN,40.764521,-73.980773
10019,MANHATTAN,40.764521,-73.980773
10019,MANHATTAN,40.764521,-73.980773
10019,MANHATTAN,40.764521,-73.980773
10019,MANHATTAN,40.764521,-73.980773
10019,MANHATTAN,40.764521,-73.980773
10019,MANHATTAN,40.764521,-73.980773
10019,MANHATTAN,40.764521,-73.980773
10019,MANHATTAN,40.764521,-73.980773
10019,MANHATTAN,40.764521,-73.980773
10019,MANHATTAN,40.764521,-73.980773
10019,MANHATTAN,40.764521,-73.980773
10019,MANHATTAN,40.764521,-73.980773
10019,MANHATTAN,40.764521,-73.980773
10019,MANHATTAN,40.764521,-73.980773
10019,MANHATTAN,40.764521,-73.980773
10019,MANHATTAN,40.764521,-73.980773
10019,MANHATTAN,40.764521,-73.980773
10019,MANHATTAN,40.764521,-73.980773
10019,MANHATTAN,40.764521,-73.980773
10019,MANHATTAN,40.764521,-73.980773
10019,MANHATTAN,40.764521,-73.980773
10019,MANHATTAN,40.764521,-73.980773
10019,MANHATTAN,40.764521,-73.980773
10019,MANHATTAN,40.764521,-73.980773
10019,MANHATTAN,40.764521,-73.980773
10019,MANHATTAN,40.764521,-73.980773
10019,MANHATTAN,40.764521,-73.980773
10019,MANHATTAN,40.764521,-73.980773
10036,MANHATTAN,40.758295000000004,-73.992719
10036,MANHATTAN,40.758756,-73.989395
10036,MANHATTAN,40.758912,-73.989763
10036,MANHATTAN,40.75908,-73.990117
10036,MANHATTAN,40.759485999999995,-73.989135
10036,MANHATTAN,40.760359,-73.98928599999999
10036,MANHATTAN,40.759996,-73.988388
10036,MANHATTAN,40.760265000000004,-73.98759
10036,MANHATTAN,40.760290000000005,-73.987572
10036,MANHATTAN,40.760315000000006,-73.987554
10036,MANHATTAN,40.761377,-73.987803
10036,MANHATTAN,40.761259,-73.98751700000001
10019,MANHATTAN,40.761133,-73.986958
10019,MANHATTAN,40.763249,-73.986467
10019,MANHATTAN,40.763059000000005,-73.985557
10019,MANHATTAN,40.767634,-73.98295999999999
10019,MANHATTAN,40.767348999999996,-73.98435
10019,MANHATTAN,40.767348999999996,-73.98435
10019,MANHATTAN,40.767348999999996,-73.98435
10023,MANHATTAN,40.769028999999996,-73.982801
10036,MANHATTAN,40.759212,-73.99450999999999
10036,MANHATTAN,40.758503999999995,-73.992835
10036,MANHATTAN,40.760123,-73.992593
10036,MANHATTAN,40.761276,-73.99145899999999
10019,MANHATTAN,40.768434,-73.986956
10019,MANHATTAN,40.768853,-73.98585200000001
10036,MANHATTAN,40.760071,-73.996549
10036,MANHATTAN,40.759906,-73.996112
10036,MANHATTAN,40.764196000000005,-73.994545
10036,MANHATTAN,40.764229,-73.994625
10036,MANHATTAN,40.764251,-73.994679
10019,MANHATTAN,40.764108,-73.992343
10019,MANHATTAN,40.77061,-73.990039
10036,MANHATTAN,40.764317,-73.995784
10023,MANHATTAN,40.768529,-73.981588
10023,MANHATTAN,40.768529,-73.981588
10023,MANHATTAN,40.768529,-73.981588
10023,MANHATTAN,40.768529,-73.981588
10023,MANHATTAN,40.768529,-73.981588
10023,MANHATTAN,40.768529,-73.981588
10023,MANHATTAN,40.768529,-73.981588
10023,MANHATTAN,40.768529,-73.981588
10023,MANHATTAN,40.768529,-73.981588
10023,MANHATTAN,40.768529,-73.981588
10023,MANHATTAN,40.768529,-73.981588
10023,MANHATTAN,40.768529,-73.981588
10023,MANHATTAN,40.768529,-73.981588
10023,MANHATTAN,40.768529,-73.981588
10023,MANHATTAN,40.768529,-73.981588
10023,MANHATTAN,40.768529,-73.981588
10023,MANHATTAN,40.768529,-73.981588
10023,MANHATTAN,40.768529,-73.981588
10023,MANHATTAN,40.768529,-73.981588
10023,MANHATTAN,40.768529,-73.981588
10023,MANHATTAN,40.768529,-73.981588
10023,MANHATTAN,40.768529,-73.981588
10023,MANHATTAN,40.768529,-73.981588
10023,MANHATTAN,40.768529,-73.981588
10023,MANHATTAN,40.768529,-73.981588
10023,MANHATTAN,40.768529,-73.981588
10023,MANHATTAN,40.768529,-73.981588
10023,MANHATTAN,40.768529,-73.981588
10023,MANHATTAN,40.768529,-73.981588
10023,MANHATTAN,40.768529,-73.981588
10023,MANHATTAN,40.768529,-73.981588
10023,MANHATTAN,40.768529,-73.981588
10023,MANHATTAN,40.768529,-73.981588
10023,MANHATTAN,40.768529,-73.981588
10023,MANHATTAN,40.768529,-73.981588
10023,MANHATTAN,40.768529,-73.981588
10023,MANHATTAN,40.768529,-73.981588
10023,MANHATTAN,40.768529,-73.981588
10023,MANHATTAN,40.768529,-73.981588
10023,MANHATTAN,40.768529,-73.981588
10023,MANHATTAN,40.768529,-73.981588
10023,MANHATTAN,40.768529,-73.981588
10023,MANHATTAN,40.768529,-73.981588
10023,MANHATTAN,40.768529,-73.981588
10023,MANHATTAN,40.768529,-73.981588
10023,MANHATTAN,40.768529,-73.981588
10023,MANHATTAN,40.768529,-73.981588
10023,MANHATTAN,40.768529,-73.981588
10023,MANHATTAN,40.768529,-73.981588
10023,MANHATTAN,40.768529,-73.981588
10023,MANHATTAN,40.768529,-73.981588
10023,MANHATTAN,40.768529,-73.981588
10023,MANHATTAN,40.768529,-73.981588
10023,MANHATTAN,40.768529,-73.981588
10023,MANHATTAN,40.768529,-73.981588
10023,MANHATTAN,40.768529,-73.981588
10023,MANHATTAN,40.768529,-73.981588
10023,MANHATTAN,40.768529,-73.981588
10023,MANHATTAN,40.768529,-73.981588
10023,MANHATTAN,40.768529,-73.981588
10023,MANHATTAN,40.768529,-73.981588
10023,MANHATTAN,40.768529,-73.981588
10023,MANHATTAN,40.768529,-73.981588
10023,MANHATTAN,40.768529,-73.981588
10023,MANHATTAN,40.768529,-73.981588
10023,MANHATTAN,40.768529,-73.981588
10023,MANHATTAN,40.768529,-73.981588
10023,MANHATTAN,40.768529,-73.981588
10023,MANHATTAN,40.768529,-73.981588
10023,MANHATTAN,40.768529,-73.981588
10023,MANHATTAN,40.768529,-73.981588
10023,MANHATTAN,40.768529,-73.981588
10023,MANHATTAN,40.768529,-73.981588
10023,MANHATTAN,40.768529,-73.981588
10023,MANHATTAN,40.768529,-73.981588
10023,MANHATTAN,40.768529,-73.981588
10023,MANHATTAN,40.768529,-73.981588
10023,MANHATTAN,40.768529,-73.981588
10023,MANHATTAN,40.768529,-73.981588
10023,MANHATTAN,40.768529,-73.981588
10023,MANHATTAN,40.768529,-73.981588
10023,MANHATTAN,40.768529,-73.981588
10023,MANHATTAN,40.768529,-73.981588
10023,MANHATTAN,40.768529,-73.981588
10023,MANHATTAN,40.768529,-73.981588
10023,MANHATTAN,40.768529,-73.981588
10023,MANHATTAN,40.768529,-73.981588
10023,MANHATTAN,40.768529,-73.981588
10023,MANHATTAN,40.768529,-73.981588
10023,MANHATTAN,40.768529,-73.981588
10023,MANHATTAN,40.768529,-73.981588
10023,MANHATTAN,40.768529,-73.981588
10023,MANHATTAN,40.768529,-73.981588
10023,MANHATTAN,40.768529,-73.981588
10023,MANHATTAN,40.768529,-73.981588
10023,MANHATTAN,40.768529,-73.981588
10023,MANHATTAN,40.768529,-73.981588
10023,MANHATTAN,40.768529,-73.981588
10023,MANHATTAN,40.768529,-73.981588
10023,MANHATTAN,40.768529,-73.981588
10023,MANHATTAN,40.768529,-73.981588
10023,MANHATTAN,40.768529,-73.981588
10023,MANHATTAN,40.768529,-73.981588
10023,MANHATTAN,40.768529,-73.981588
10023,MANHATTAN,40.768529,-73.981588
10023,MANHATTAN,40.768529,-73.981588
10023,MANHATTAN,40.768529,-73.981588
10023,MANHATTAN,40.768529,-73.981588
10023,MANHATTAN,40.768529,-73.981588
10023,MANHATTAN,40.768529,-73.981588
10023,MANHATTAN,40.768529,-73.981588
10023,MANHATTAN,40.768529,-73.981588
10023,MANHATTAN,40.768529,-73.981588
10023,MANHATTAN,40.768529,-73.981588
10023,MANHATTAN,40.768529,-73.981588
10023,MANHATTAN,40.768529,-73.981588
10023,MANHATTAN,40.768529,-73.981588
10023,MANHATTAN,40.768529,-73.981588
10023,MANHATTAN,40.768529,-73.981588
10023,MANHATTAN,40.768529,-73.981588
10023,MANHATTAN,40.768529,-73.981588
10023,MANHATTAN,40.768529,-73.981588
10023,MANHATTAN,40.768529,-73.981588
10023,MANHATTAN,40.768529,-73.981588
10023,MANHATTAN,40.768529,-73.981588
10023,MANHATTAN,40.768529,-73.981588
10023,MANHATTAN,40.768529,-73.981588
10023,MANHATTAN,40.768529,-73.981588
10023,MANHATTAN,40.768529,-73.981588
10023,MANHATTAN,40.768529,-73.981588
10023,MANHATTAN,40.768529,-73.981588
10023,MANHATTAN,40.768529,-73.981588
10023,MANHATTAN,40.768529,-73.981588
10023,MANHATTAN,40.768529,-73.981588
10023,MANHATTAN,40.768529,-73.981588
10023,MANHATTAN,40.768529,-73.981588
10023,MANHATTAN,40.768529,-73.981588
10023,MANHATTAN,40.768529,-73.981588
10023,MANHATTAN,40.768529,-73.981588
10023,MANHATTAN,40.768529,-73.981588
10023,MANHATTAN,40.768529,-73.981588
10023,MANHATTAN,40.768529,-73.981588
10023,MANHATTAN,40.768529,-73.981588
10023,MANHATTAN,40.768529,-73.981588
10023,MANHATTAN,40.768529,-73.981588
10023,MANHATTAN,40.768529,-73.981588
10023,MANHATTAN,40.768529,-73.981588
10023,MANHATTAN,40.768529,-73.981588
10023,MANHATTAN,40.768529,-73.981588
10023,MANHATTAN,40.768529,-73.981588
10023,MANHATTAN,40.768529,-73.981588
10023,MANHATTAN,40.768529,-73.981588
10023,MANHATTAN,40.768529,-73.981588
10023,MANHATTAN,40.768529,-73.981588
10023,MANHATTAN,40.768529,-73.981588
10023,MANHATTAN,40.768529,-73.981588
10023,MANHATTAN,40.768529,-73.981588
10023,MANHATTAN,40.768529,-73.981588
10023,MANHATTAN,40.768529,-73.981588
10023,MANHATTAN,40.768529,-73.981588
10023,MANHATTAN,40.768529,-73.981588
10023,MANHATTAN,40.768529,-73.981588
10023,MANHATTAN,40.768529,-73.981588
10023,MANHATTAN,40.768529,-73.981588
10023,MANHATTAN,40.768529,-73.981588
10023,MANHATTAN,40.768529,-73.981588
10023,MANHATTAN,40.768529,-73.981588
10023,MANHATTAN,40.768529,-73.981588
10023,MANHATTAN,40.77095,-73.982158
10023,MANHATTAN,40.776185999999996,-73.977983
10023,MANHATTAN,40.774122999999996,-73.982229
10023,MANHATTAN,40.774122999999996,-73.982229
10023,MANHATTAN,40.774122999999996,-73.982229
10023,MANHATTAN,40.774122999999996,-73.982229
10023,MANHATTAN,40.774122999999996,-73.982229
10023,MANHATTAN,40.774122999999996,-73.982229
10023,MANHATTAN,40.774122999999996,-73.982229
10023,MANHATTAN,40.774122999999996,-73.982229
10023,MANHATTAN,40.774122999999996,-73.982229
10023,MANHATTAN,40.774122999999996,-73.982229
10023,MANHATTAN,40.774122999999996,-73.982229
10023,MANHATTAN,40.774122999999996,-73.982229
10023,MANHATTAN,40.774122999999996,-73.982229
10023,MANHATTAN,40.774122999999996,-73.982229
10023,MANHATTAN,40.774122999999996,-73.982229
10023,MANHATTAN,40.774122999999996,-73.982229
10023,MANHATTAN,40.774122999999996,-73.982229
10023,MANHATTAN,40.774122999999996,-73.982229
10023,MANHATTAN,40.774122999999996,-73.982229
10023,MANHATTAN,40.774122999999996,-73.982229
10023,MANHATTAN,40.774122999999996,-73.982229
10023,MANHATTAN,40.774122999999996,-73.982229
10023,MANHATTAN,40.774122999999996,-73.982229
10023,MANHATTAN,40.774122999999996,-73.982229
10023,MANHATTAN,40.774122999999996,-73.982229
10023,MANHATTAN,40.774122999999996,-73.982229
10023,MANHATTAN,40.774122999999996,-73.982229
10023,MANHATTAN,40.774122999999996,-73.982229
10023,MANHATTAN,40.774122999999996,-73.982229
10023,MANHATTAN,40.774122999999996,-73.982229
10023,MANHATTAN,40.774122999999996,-73.982229
10023,MANHATTAN,40.774122999999996,-73.982229
10023,MANHATTAN,40.774122999999996,-73.982229
10023,MANHATTAN,40.774122999999996,-73.982229
10023,MANHATTAN,40.774122999999996,-73.982229
10023,MANHATTAN,40.774122999999996,-73.982229
10023,MANHATTAN,40.774122999999996,-73.982229
10023,MANHATTAN,40.774122999999996,-73.982229
10023,MANHATTAN,40.774122999999996,-73.982229
10023,MANHATTAN,40.774122999999996,-73.982229
10023,MANHATTAN,40.774122999999996,-73.982229
10023,MANHATTAN,40.774122999999996,-73.982229
10023,MANHATTAN,40.774122999999996,-73.982229
10023,MANHATTAN,40.774122999999996,-73.982229
10023,MANHATTAN,40.774122999999996,-73.982229
10023,MANHATTAN,40.774122999999996,-73.982229
10023,MANHATTAN,40.774122999999996,-73.982229
10023,MANHATTAN,40.774122999999996,-73.982229
10023,MANHATTAN,40.774122999999996,-73.982229
10023,MANHATTAN,40.774122999999996,-73.982229
10023,MANHATTAN,40.774122999999996,-73.982229
10023,MANHATTAN,40.774122999999996,-73.982229
10023,MANHATTAN,40.774122999999996,-73.982229
10023,MANHATTAN,40.774122999999996,-73.982229
10023,MANHATTAN,40.774122999999996,-73.982229
10023,MANHATTAN,40.774122999999996,-73.982229
10023,MANHATTAN,40.774122999999996,-73.982229
10023,MANHATTAN,40.774122999999996,-73.982229
10023,MANHATTAN,40.774122999999996,-73.982229
10023,MANHATTAN,40.774122999999996,-73.982229
10023,MANHATTAN,40.774122999999996,-73.982229
10023,MANHATTAN,40.774122999999996,-73.982229
10023,MANHATTAN,40.774122999999996,-73.982229
10023,MANHATTAN,40.774122999999996,-73.982229
10023,MANHATTAN,40.774122999999996,-73.982229
10023,MANHATTAN,40.774122999999996,-73.982229
10023,MANHATTAN,40.774122999999996,-73.982229
10023,MANHATTAN,40.774122999999996,-73.982229
10023,MANHATTAN,40.774122999999996,-73.982229
10023,MANHATTAN,40.774122999999996,-73.982229
10023,MANHATTAN,40.774122999999996,-73.982229
10023,MANHATTAN,40.774122999999996,-73.982229
10023,MANHATTAN,40.774122999999996,-73.982229
10023,MANHATTAN,40.774122999999996,-73.982229
10023,MANHATTAN,40.774122999999996,-73.982229
10023,MANHATTAN,40.774122999999996,-73.982229
10023,MANHATTAN,40.774122999999996,-73.982229
10023,MANHATTAN,40.774122999999996,-73.982229
10023,MANHATTAN,40.774122999999996,-73.982229
10023,MANHATTAN,40.774122999999996,-73.982229
10023,MANHATTAN,40.774122999999996,-73.982229
10023,MANHATTAN,40.774122999999996,-73.982229
10023,MANHATTAN,40.774122999999996,-73.982229
10023,MANHATTAN,40.774122999999996,-73.982229
10023,MANHATTAN,40.774122999999996,-73.982229
10023,MANHATTAN,40.774122999999996,-73.982229
10023,MANHATTAN,40.774122999999996,-73.982229
10023,MANHATTAN,40.774122999999996,-73.982229
10023,MANHATTAN,40.774386,-73.983399
10023,MANHATTAN,40.774386,-73.983399
10023,MANHATTAN,40.774386,-73.983399
10023,MANHATTAN,40.774386,-73.983399
10023,MANHATTAN,40.774386,-73.983399
10023,MANHATTAN,40.774386,-73.983399
10023,MANHATTAN,40.774386,-73.983399
10023,MANHATTAN,40.774386,-73.983399
10023,MANHATTAN,40.774386,-73.983399
10023,MANHATTAN,40.774386,-73.983399
10023,MANHATTAN,40.774386,-73.983399
10023,MANHATTAN,40.774386,-73.983399
10023,MANHATTAN,40.774386,-73.983399
10023,MANHATTAN,40.774386,-73.983399
10023,MANHATTAN,40.774386,-73.983399
10023,MANHATTAN,40.774386,-73.983399
10023,MANHATTAN,40.774386,-73.983399
10023,MANHATTAN,40.774386,-73.983399
10023,MANHATTAN,40.774386,-73.983399
10023,MANHATTAN,40.774386,-73.983399
10023,MANHATTAN,40.774386,-73.983399
10023,MANHATTAN,40.774386,-73.983399
10023,MANHATTAN,40.774386,-73.983399
10023,MANHATTAN,40.774386,-73.983399
10023,MANHATTAN,40.774386,-73.983399
10023,MANHATTAN,40.774386,-73.983399
10023,MANHATTAN,40.774386,-73.983399
10023,MANHATTAN,40.774386,-73.983399
10023,MANHATTAN,40.774386,-73.983399
10023,MANHATTAN,40.774386,-73.983399
10023,MANHATTAN,40.774386,-73.983399
10023,MANHATTAN,40.774386,-73.983399
10023,MANHATTAN,40.774386,-73.983399
10023,MANHATTAN,40.774386,-73.983399
10023,MANHATTAN,40.774386,-73.983399
10023,MANHATTAN,40.774386,-73.983399
10023,MANHATTAN,40.774386,-73.983399
10023,MANHATTAN,40.774386,-73.983399
10023,MANHATTAN,40.774386,-73.983399
10023,MANHATTAN,40.774386,-73.983399
10023,MANHATTAN,40.774386,-73.983399
10023,MANHATTAN,40.774386,-73.983399
10023,MANHATTAN,40.774386,-73.983399
10023,MANHATTAN,40.774386,-73.983399
10023,MANHATTAN,40.774386,-73.983399
10023,MANHATTAN,40.774386,-73.983399
10023,MANHATTAN,40.774386,-73.983399
10023,MANHATTAN,40.774386,-73.983399
10023,MANHATTAN,40.774386,-73.983399
10023,MANHATTAN,40.774386,-73.983399
10023,MANHATTAN,40.774386,-73.983399
10023,MANHATTAN,40.774386,-73.983399
10023,MANHATTAN,40.774386,-73.983399
10023,MANHATTAN,40.774386,-73.983399
10023,MANHATTAN,40.774386,-73.983399
10023,MANHATTAN,40.774386,-73.983399
10023,MANHATTAN,40.774386,-73.983399
10023,MANHATTAN,40.774386,-73.983399
10023,MANHATTAN,40.774386,-73.983399
10023,MANHATTAN,40.774386,-73.983399
10023,MANHATTAN,40.774386,-73.983399
10023,MANHATTAN,40.774386,-73.983399
10023,MANHATTAN,40.774386,-73.983399
10023,MANHATTAN,40.774386,-73.983399
10023,MANHATTAN,40.774386,-73.983399
10023,MANHATTAN,40.774386,-73.983399
10023,MANHATTAN,40.774386,-73.983399
10023,MANHATTAN,40.774386,-73.983399
10023,MANHATTAN,40.774386,-73.983399
10023,MANHATTAN,40.774386,-73.983399
10023,MANHATTAN,40.774386,-73.983399
10023,MANHATTAN,40.774386,-73.983399
10023,MANHATTAN,40.774386,-73.983399
10023,MANHATTAN,40.774386,-73.983399
10023,MANHATTAN,40.776376,-73.980355
10023,MANHATTAN,40.778682,-73.983914
10023,MANHATTAN,40.779876,-73.982553
10023,MANHATTAN,40.780621999999994,-73.981412
10023,MANHATTAN,40.78197,-73.98161
10024,MANHATTAN,40.782137,-73.98092
10024,MANHATTAN,40.782253000000004,-73.980898
10019,MANHATTAN,40.771898,-73.9911
10019,MANHATTAN,40.771898,-73.9911
10019,MANHATTAN,40.771898,-73.9911
10019,MANHATTAN,40.771898,-73.9911
10023,MANHATTAN,40.779462,-73.985803
10023,MANHATTAN,40.78135,-73.983372
10024,MANHATTAN,40.782596999999996,-73.973026
10024,MANHATTAN,40.782276,-73.976229
10024,MANHATTAN,40.78476,-73.974149
10024,MANHATTAN,40.784779,-73.974192
10024,MANHATTAN,40.78335,-73.97819
10024,MANHATTAN,40.787696999999994,-73.97704
10024,MANHATTAN,40.787178000000004,-73.97590600000001
10024,MANHATTAN,40.78852,-73.97488
10024,MANHATTAN,40.788457,-73.97446500000001
10025,MANHATTAN,40.791646,-73.972607
10025,MANHATTAN,40.793033,-73.974817
10025,MANHATTAN,40.792999,-73.972975
10025,MANHATTAN,40.793440999999994,-73.972657
10025,MANHATTAN,40.793661,-73.972498
10025,MANHATTAN,40.793485,-73.970794
10024,MANHATTAN,40.784531,-73.981562
10024,MANHATTAN,40.785574,-73.981713
10024,MANHATTAN,40.788653000000004,-73.979452
10024,MANHATTAN,40.789773,-73.979936
10024,MANHATTAN,40.789567,-73.979448
10024,MANHATTAN,40.790662,-73.97805
10025,MANHATTAN,40.793469,-73.974936
10025,MANHATTAN,40.794114,-73.97456700000001
10025,MANHATTAN,40.794125,-73.97459599999999
10025,MANHATTAN,40.794205,-73.974734
10025,MANHATTAN,40.794177000000005,-73.974676
10025,MANHATTAN,40.794825,-73.974296
10025,MANHATTAN,40.794918,-73.974517
10036,MANHATTAN,40.754814,-73.981935
10036,MANHATTAN,40.754503,-73.981195
10036,MANHATTAN,40.755077,-73.980661
10036,MANHATTAN,40.755255,-73.981087
10036,MANHATTAN,40.755555,-73.98175400000001
10036,MANHATTAN,40.755516,-73.98165999999999
10036,MANHATTAN,40.755439,-73.981476
10036,MANHATTAN,40.75542,-73.981429
10036,MANHATTAN,40.755362,-73.98129200000001
10036,MANHATTAN,40.755244,-73.981014
10036,MANHATTAN,40.755963,-73.980823
10036,MANHATTAN,40.756240999999996,-73.98148
10036,MANHATTAN,40.756240999999996,-73.98148
10036,MANHATTAN,40.755755,-73.980285
10036,MANHATTAN,40.756504,-73.980173
10036,MANHATTAN,40.756803000000005,-73.980841
10019,MANHATTAN,40.759298,-73.977032
10019,MANHATTAN,40.759865999999995,-73.978385
10019,MANHATTAN,40.759865999999995,-73.978385
10019,MANHATTAN,40.759482,-73.977468
10019,MANHATTAN,40.759482,-73.977468
10019,MANHATTAN,40.760971999999995,-73.977172
10019,MANHATTAN,40.762487,-73.978521
10019,MANHATTAN,40.761139,-73.975316
10019,MANHATTAN,40.761303999999996,-73.97519399999999
10019,MANHATTAN,40.762248,-73.97626899999999
10019,MANHATTAN,40.762190000000004,-73.97613199999999
10019,MANHATTAN,40.762648999999996,-73.975323
10019,MANHATTAN,40.762668,-73.97537
10019,MANHATTAN,40.762687,-73.97541700000001
10019,MANHATTAN,40.762621,-73.975211
10019,MANHATTAN,40.764361,-73.975189
10019,MANHATTAN,40.764734999999995,-73.976885
10019,MANHATTAN,40.765039,-73.97475899999999
10019,MANHATTAN,40.765163,-73.97505100000001
10019,MANHATTAN,40.765163,-73.97505100000001
10019,MANHATTAN,40.764155,-73.973951
10019,MANHATTAN,40.764155,-73.973951
10019,MANHATTAN,40.764155,-73.973951
10019,MANHATTAN,40.764155,-73.973951
10019,MANHATTAN,40.764155,-73.973951
10019,MANHATTAN,40.764155,-73.973951
10019,MANHATTAN,40.764155,-73.973951
10019,MANHATTAN,40.764155,-73.973951
10019,MANHATTAN,40.764155,-73.973951
10019,MANHATTAN,40.764155,-73.973951
10019,MANHATTAN,40.764155,-73.973951
10019,MANHATTAN,40.764155,-73.973951
10019,MANHATTAN,40.764155,-73.973951
10019,MANHATTAN,40.764155,-73.973951
10019,MANHATTAN,40.764155,-73.973951
10019,MANHATTAN,40.764155,-73.973951
10019,MANHATTAN,40.764155,-73.973951
10019,MANHATTAN,40.764155,-73.973951
10019,MANHATTAN,40.764155,-73.973951
10019,MANHATTAN,40.764155,-73.973951
10019,MANHATTAN,40.764155,-73.973951
10019,MANHATTAN,40.764155,-73.973951
10019,MANHATTAN,40.764155,-73.973951
10019,MANHATTAN,40.764155,-73.973951
10019,MANHATTAN,40.764155,-73.973951
10019,MANHATTAN,40.764155,-73.973951
10019,MANHATTAN,40.764155,-73.973951
10019,MANHATTAN,40.764155,-73.973951
10019,MANHATTAN,40.764155,-73.973951
10019,MANHATTAN,40.764155,-73.973951
10019,MANHATTAN,40.764155,-73.973951
10019,MANHATTAN,40.764155,-73.973951
10019,MANHATTAN,40.764155,-73.973951
10019,MANHATTAN,40.764155,-73.973951
10019,MANHATTAN,40.764155,-73.973951
10019,MANHATTAN,40.764155,-73.973951
10019,MANHATTAN,40.764155,-73.973951
10019,MANHATTAN,40.764155,-73.973951
10019,MANHATTAN,40.764155,-73.973951
10019,MANHATTAN,40.764155,-73.973951
10019,MANHATTAN,40.764155,-73.973951
10019,MANHATTAN,40.764155,-73.973951
10019,MANHATTAN,40.764155,-73.973951
10019,MANHATTAN,40.764155,-73.973951
10019,MANHATTAN,40.764155,-73.973951
10019,MANHATTAN,40.764155,-73.973951
10019,MANHATTAN,40.764155,-73.973951
10019,MANHATTAN,40.764155,-73.973951
10019,MANHATTAN,40.764155,-73.973951
10019,MANHATTAN,40.764155,-73.973951
10019,MANHATTAN,40.764155,-73.973951
10019,MANHATTAN,40.764155,-73.973951
10019,MANHATTAN,40.764155,-73.973951
10019,MANHATTAN,40.764155,-73.973951
10019,MANHATTAN,40.764155,-73.973951
10019,MANHATTAN,40.764155,-73.973951
10019,MANHATTAN,40.764155,-73.973951
10019,MANHATTAN,40.764155,-73.973951
10019,MANHATTAN,40.764155,-73.973951
10019,MANHATTAN,40.764155,-73.973951
10019,MANHATTAN,40.764155,-73.973951
10019,MANHATTAN,40.764155,-73.973951
10019,MANHATTAN,40.764155,-73.973951
10019,MANHATTAN,40.764155,-73.973951
10019,MANHATTAN,40.764155,-73.973951
10019,MANHATTAN,40.764155,-73.973951
10019,MANHATTAN,40.764155,-73.973951
10019,MANHATTAN,40.764155,-73.973951
10019,MANHATTAN,40.764155,-73.973951
10019,MANHATTAN,40.764155,-73.973951
10019,MANHATTAN,40.764155,-73.973951
10019,MANHATTAN,40.764155,-73.973951
10019,MANHATTAN,40.764155,-73.973951
10019,MANHATTAN,40.764155,-73.973951
10019,MANHATTAN,40.764155,-73.973951
10019,MANHATTAN,40.764155,-73.973951
10019,MANHATTAN,40.764155,-73.973951
10019,MANHATTAN,40.764155,-73.973951
10019,MANHATTAN,40.764155,-73.973951
10019,MANHATTAN,40.764155,-73.973951
10019,MANHATTAN,40.764155,-73.973951
10019,MANHATTAN,40.764155,-73.973951
10019,MANHATTAN,40.764155,-73.973951
10019,MANHATTAN,40.764155,-73.973951
10019,MANHATTAN,40.764155,-73.973951
10019,MANHATTAN,40.764155,-73.973951
10019,MANHATTAN,40.764155,-73.973951
10019,MANHATTAN,40.764155,-73.973951
10019,MANHATTAN,40.764155,-73.973951
10019,MANHATTAN,40.764155,-73.973951
10019,MANHATTAN,40.764155,-73.973951
10019,MANHATTAN,40.764155,-73.973951
10019,MANHATTAN,40.764155,-73.973951
10019,MANHATTAN,40.764155,-73.973951
10019,MANHATTAN,40.764155,-73.973951
10019,MANHATTAN,40.764155,-73.973951
10019,MANHATTAN,40.764155,-73.973951
10019,MANHATTAN,40.764155,-73.973951
10019,MANHATTAN,40.764155,-73.973951
10019,MANHATTAN,40.764155,-73.973951
10019,MANHATTAN,40.764155,-73.973951
10019,MANHATTAN,40.764155,-73.973951
10019,MANHATTAN,40.764155,-73.973951
10019,MANHATTAN,40.764155,-73.973951
10019,MANHATTAN,40.764155,-73.973951
10019,MANHATTAN,40.764155,-73.973951
10019,MANHATTAN,40.764155,-73.973951
10019,MANHATTAN,40.764155,-73.973951
10019,MANHATTAN,40.764155,-73.973951
10019,MANHATTAN,40.764155,-73.973951
10019,MANHATTAN,40.764155,-73.973951
10019,MANHATTAN,40.764155,-73.973951
10019,MANHATTAN,40.764155,-73.973951
10019,MANHATTAN,40.764155,-73.973951
10019,MANHATTAN,40.764155,-73.973951
10019,MANHATTAN,40.764155,-73.973951
10019,MANHATTAN,40.764155,-73.973951
10019,MANHATTAN,40.764155,-73.973951
10019,MANHATTAN,40.764155,-73.973951
10019,MANHATTAN,40.764155,-73.973951
10019,MANHATTAN,40.764155,-73.973951
10019,MANHATTAN,40.764155,-73.973951
10019,MANHATTAN,40.764155,-73.973951
10019,MANHATTAN,40.764155,-73.973951
10019,MANHATTAN,40.764155,-73.973951
10019,MANHATTAN,40.764155,-73.973951
10019,MANHATTAN,40.764155,-73.973951
10019,MANHATTAN,40.764155,-73.973951
10019,MANHATTAN,40.764155,-73.973951
10019,MANHATTAN,40.764155,-73.973951
10019,MANHATTAN,40.764155,-73.973951
10019,MANHATTAN,40.764155,-73.973951
10019,MANHATTAN,40.764155,-73.973951
10019,MANHATTAN,40.764155,-73.973951
10019,MANHATTAN,40.764155,-73.973951
10019,MANHATTAN,40.764155,-73.973951
10019,MANHATTAN,40.764155,-73.973951
10019,MANHATTAN,40.764155,-73.973951
10019,MANHATTAN,40.764155,-73.973951
10019,MANHATTAN,40.764155,-73.973951
10019,MANHATTAN,40.764155,-73.973951
10019,MANHATTAN,40.764155,-73.973951
10019,MANHATTAN,40.764155,-73.973951
10019,MANHATTAN,40.764155,-73.973951
10019,MANHATTAN,40.764155,-73.973951
10019,MANHATTAN,40.764155,-73.973951
10019,MANHATTAN,40.764155,-73.973951
10019,MANHATTAN,40.764155,-73.973951
10019,MANHATTAN,40.764155,-73.973951
10019,MANHATTAN,40.764155,-73.973951
10019,MANHATTAN,40.764155,-73.973951
10019,MANHATTAN,40.764155,-73.973951
10019,MANHATTAN,40.764155,-73.973951
10016,MANHATTAN,40.752058,-73.981466
10017,MANHATTAN,40.751906,-73.97924300000001
10017,MANHATTAN,40.7529,-73.981297
10017,MANHATTAN,40.752101,-73.979416
10017,MANHATTAN,40.754605,-73.979538
10017,MANHATTAN,40.751862,-73.977034
10017,MANHATTAN,40.754538000000004,-73.977398
10017,MANHATTAN,40.755669,-73.978184
10017,MANHATTAN,40.756978000000004,-73.977408
10022,MANHATTAN,40.758114,-73.97539300000001
10022,MANHATTAN,40.759212,-73.97462
10022,MANHATTAN,40.760126,-73.97322700000001
10022,MANHATTAN,40.761559000000005,-73.974681
10022,MANHATTAN,40.761559000000005,-73.974681
10022,MANHATTAN,40.761559000000005,-73.974681
10022,MANHATTAN,40.761559000000005,-73.974681
10022,MANHATTAN,40.761559000000005,-73.974681
10022,MANHATTAN,40.761559000000005,-73.974681
10022,MANHATTAN,40.761559000000005,-73.974681
10022,MANHATTAN,40.761559000000005,-73.974681
10022,MANHATTAN,40.761559000000005,-73.974681
10022,MANHATTAN,40.761559000000005,-73.974681
10022,MANHATTAN,40.761559000000005,-73.974681
10022,MANHATTAN,40.761559000000005,-73.974681
10022,MANHATTAN,40.761559000000005,-73.974681
10022,MANHATTAN,40.761559000000005,-73.974681
10022,MANHATTAN,40.761559000000005,-73.974681
10022,MANHATTAN,40.761559000000005,-73.974681
10022,MANHATTAN,40.761559000000005,-73.974681
10022,MANHATTAN,40.761559000000005,-73.974681
10022,MANHATTAN,40.761559000000005,-73.974681
10022,MANHATTAN,40.761559000000005,-73.974681
10022,MANHATTAN,40.761559000000005,-73.974681
10022,MANHATTAN,40.761559000000005,-73.974681
10022,MANHATTAN,40.761559000000005,-73.974681
10022,MANHATTAN,40.761559000000005,-73.974681
10022,MANHATTAN,40.761559000000005,-73.974681
10022,MANHATTAN,40.761559000000005,-73.974681
10022,MANHATTAN,40.761559000000005,-73.974681
10022,MANHATTAN,40.761559000000005,-73.974681
10022,MANHATTAN,40.761559000000005,-73.974681
10022,MANHATTAN,40.761559000000005,-73.974681
10022,MANHATTAN,40.761559000000005,-73.974681
10022,MANHATTAN,40.761559000000005,-73.974681
10022,MANHATTAN,40.761559000000005,-73.974681
10022,MANHATTAN,40.761559000000005,-73.974681
10022,MANHATTAN,40.761559000000005,-73.974681
10022,MANHATTAN,40.761559000000005,-73.974681
10022,MANHATTAN,40.761559000000005,-73.974681
10022,MANHATTAN,40.761559000000005,-73.974681
10022,MANHATTAN,40.761559000000005,-73.974681
10022,MANHATTAN,40.761559000000005,-73.974681
10022,MANHATTAN,40.761559000000005,-73.974681
10022,MANHATTAN,40.761559000000005,-73.974681
10022,MANHATTAN,40.761559000000005,-73.974681
10022,MANHATTAN,40.761559000000005,-73.974681
10022,MANHATTAN,40.761559000000005,-73.974681
10022,MANHATTAN,40.761559000000005,-73.974681
10022,MANHATTAN,40.761559000000005,-73.974681
10022,MANHATTAN,40.762088,-73.971862
10017,MANHATTAN,40.752474,-73.974446
10017,MANHATTAN,40.753138,-73.97480300000001
10017,MANHATTAN,40.754709999999996,-73.97365500000001
10017,MANHATTAN,40.754366999999995,-73.973117
10017,MANHATTAN,40.755062,-73.972868
10017,MANHATTAN,40.75496,-73.97347099999999
10017,MANHATTAN,40.75555,-73.973979
10017,MANHATTAN,40.755685,-73.972943
10017,MANHATTAN,40.755232,-73.97296899999999
10022,MANHATTAN,40.756161999999996,-73.972593
10017,MANHATTAN,40.75564,-73.97225
10022,MANHATTAN,40.75623,-73.971752
10022,MANHATTAN,40.756648,-73.974358
10022,MANHATTAN,40.756648,-73.974358
10022,MANHATTAN,40.756586999999996,-73.97228299999999
10022,MANHATTAN,40.756266,-73.97179200000001
10022,MANHATTAN,40.75623,-73.97170200000001
10022,MANHATTAN,40.756206,-73.971644
10022,MANHATTAN,40.756917,-73.972044
10022,MANHATTAN,40.757435,-73.9696
10022,MANHATTAN,40.759434000000006,-73.971541
10022,MANHATTAN,40.759364,-73.969484
10022,MANHATTAN,40.759815,-73.970502
10022,MANHATTAN,40.760701,-73.970671
10022,MANHATTAN,40.760564,-73.969386
10022,MANHATTAN,40.760641,-73.969353
10022,MANHATTAN,40.76083,-73.969216
10017,MANHATTAN,40.750415000000004,-73.973635
10017,MANHATTAN,40.751104,-73.973137
10017,MANHATTAN,40.751548,-73.970964
10017,MANHATTAN,40.751809,-73.972876
10017,MANHATTAN,40.752942,-73.97171
10017,MANHATTAN,40.752531,-73.97264200000001
10017,MANHATTAN,40.752531,-73.97264200000001
10017,MANHATTAN,40.752531,-73.97264200000001
10017,MANHATTAN,40.752531,-73.97264200000001
10017,MANHATTAN,40.752531,-73.97264200000001
10017,MANHATTAN,40.752531,-73.97264200000001
10017,MANHATTAN,40.752531,-73.97264200000001
10017,MANHATTAN,40.752531,-73.97264200000001
10017,MANHATTAN,40.752531,-73.97264200000001
10017,MANHATTAN,40.752531,-73.97264200000001
10017,MANHATTAN,40.752531,-73.97264200000001
10017,MANHATTAN,40.752531,-73.97264200000001
10017,MANHATTAN,40.752531,-73.97264200000001
10017,MANHATTAN,40.752531,-73.97264200000001
10017,MANHATTAN,40.752531,-73.97264200000001
10017,MANHATTAN,40.752531,-73.97264200000001
10017,MANHATTAN,40.752531,-73.97264200000001
10017,MANHATTAN,40.752531,-73.97264200000001
10017,MANHATTAN,40.752531,-73.97264200000001
10017,MANHATTAN,40.752531,-73.97264200000001
10017,MANHATTAN,40.752531,-73.97264200000001
10017,MANHATTAN,40.752531,-73.97264200000001
10017,MANHATTAN,40.752531,-73.97264200000001
10017,MANHATTAN,40.752531,-73.97264200000001
10017,MANHATTAN,40.752531,-73.97264200000001
10017,MANHATTAN,40.752531,-73.97264200000001
10017,MANHATTAN,40.752531,-73.97264200000001
10017,MANHATTAN,40.752531,-73.97264200000001
10017,MANHATTAN,40.752531,-73.97264200000001
10017,MANHATTAN,40.752531,-73.97264200000001
10017,MANHATTAN,40.752531,-73.97264200000001
10017,MANHATTAN,40.752531,-73.97264200000001
10017,MANHATTAN,40.752531,-73.97264200000001
10017,MANHATTAN,40.752531,-73.97264200000001
10017,MANHATTAN,40.752531,-73.97264200000001
10017,MANHATTAN,40.752531,-73.97264200000001
10017,MANHATTAN,40.752531,-73.97264200000001
10017,MANHATTAN,40.752531,-73.97264200000001
10017,MANHATTAN,40.752531,-73.97264200000001
10017,MANHATTAN,40.752531,-73.97264200000001
10017,MANHATTAN,40.752531,-73.97264200000001
10017,MANHATTAN,40.752531,-73.97264200000001
10017,MANHATTAN,40.752531,-73.97264200000001
10017,MANHATTAN,40.752531,-73.97264200000001
10017,MANHATTAN,40.752531,-73.97264200000001
10017,MANHATTAN,40.752531,-73.97264200000001
10017,MANHATTAN,40.752531,-73.97264200000001
10017,MANHATTAN,40.752531,-73.97264200000001
10017,MANHATTAN,40.752531,-73.97264200000001
10017,MANHATTAN,40.752531,-73.97264200000001
10017,MANHATTAN,40.752531,-73.97264200000001
10017,MANHATTAN,40.752531,-73.97264200000001
10017,MANHATTAN,40.752531,-73.97264200000001
10017,MANHATTAN,40.752531,-73.97264200000001
10017,MANHATTAN,40.752531,-73.97264200000001
10017,MANHATTAN,40.752531,-73.97264200000001
10017,MANHATTAN,40.752531,-73.97264200000001
10017,MANHATTAN,40.752531,-73.97264200000001
10017,MANHATTAN,40.752531,-73.97264200000001
10017,MANHATTAN,40.752531,-73.97264200000001
10017,MANHATTAN,40.752531,-73.97264200000001
10017,MANHATTAN,40.752531,-73.97264200000001
10017,MANHATTAN,40.752531,-73.97264200000001
10017,MANHATTAN,40.752531,-73.97264200000001
10017,MANHATTAN,40.752531,-73.97264200000001
10017,MANHATTAN,40.752531,-73.97264200000001
10017,MANHATTAN,40.752531,-73.97264200000001
10017,MANHATTAN,40.752531,-73.97264200000001
10017,MANHATTAN,40.752531,-73.97264200000001
10017,MANHATTAN,40.752531,-73.97264200000001
10017,MANHATTAN,40.752531,-73.97264200000001
10017,MANHATTAN,40.752531,-73.97264200000001
10017,MANHATTAN,40.752531,-73.97264200000001
10017,MANHATTAN,40.752531,-73.97264200000001
10017,MANHATTAN,40.752531,-73.97264200000001
10017,MANHATTAN,40.752531,-73.97264200000001
10017,MANHATTAN,40.752531,-73.97264200000001
10017,MANHATTAN,40.752531,-73.97264200000001
10017,MANHATTAN,40.752531,-73.97264200000001
10017,MANHATTAN,40.752531,-73.97264200000001
10017,MANHATTAN,40.752531,-73.97264200000001
10017,MANHATTAN,40.752531,-73.97264200000001
10017,MANHATTAN,40.752531,-73.97264200000001
10017,MANHATTAN,40.752531,-73.97264200000001
10017,MANHATTAN,40.752531,-73.97264200000001
10017,MANHATTAN,40.752531,-73.97264200000001
10017,MANHATTAN,40.752531,-73.97264200000001
10017,MANHATTAN,40.752531,-73.97264200000001
10017,MANHATTAN,40.752531,-73.97264200000001
10017,MANHATTAN,40.752531,-73.97264200000001
10017,MANHATTAN,40.752531,-73.97264200000001
10017,MANHATTAN,40.752531,-73.97264200000001
10017,MANHATTAN,40.752531,-73.97264200000001
10017,MANHATTAN,40.752531,-73.97264200000001
10017,MANHATTAN,40.752531,-73.97264200000001
10017,MANHATTAN,40.752531,-73.97264200000001
10017,MANHATTAN,40.752531,-73.97264200000001
10017,MANHATTAN,40.752531,-73.97264200000001
10017,MANHATTAN,40.752531,-73.97264200000001
10017,MANHATTAN,40.752531,-73.97264200000001
10017,MANHATTAN,40.752531,-73.97264200000001
10017,MANHATTAN,40.752531,-73.97264200000001
10017,MANHATTAN,40.752531,-73.97264200000001
10017,MANHATTAN,40.752531,-73.97264200000001
10017,MANHATTAN,40.752531,-73.97264200000001
10017,MANHATTAN,40.752531,-73.97264200000001
10017,MANHATTAN,40.752531,-73.97264200000001
10017,MANHATTAN,40.752531,-73.97264200000001
10017,MANHATTAN,40.752531,-73.97264200000001
10017,MANHATTAN,40.752531,-73.97264200000001
10017,MANHATTAN,40.752531,-73.97264200000001
10017,MANHATTAN,40.752531,-73.97264200000001
10017,MANHATTAN,40.752531,-73.97264200000001
10017,MANHATTAN,40.752531,-73.97264200000001
10017,MANHATTAN,40.752531,-73.97264200000001
10017,MANHATTAN,40.752531,-73.97264200000001
10017,MANHATTAN,40.752531,-73.97264200000001
10017,MANHATTAN,40.752531,-73.97264200000001
10017,MANHATTAN,40.752531,-73.97264200000001
10017,MANHATTAN,40.752531,-73.97264200000001
10017,MANHATTAN,40.752531,-73.97264200000001
10017,MANHATTAN,40.752531,-73.97264200000001
10017,MANHATTAN,40.752531,-73.97264200000001
10017,MANHATTAN,40.752531,-73.97264200000001
10017,MANHATTAN,40.752531,-73.97264200000001
10017,MANHATTAN,40.752531,-73.97264200000001
10017,MANHATTAN,40.752531,-73.97264200000001
10017,MANHATTAN,40.752531,-73.97264200000001
10017,MANHATTAN,40.752531,-73.97264200000001
10017,MANHATTAN,40.752531,-73.97264200000001
10017,MANHATTAN,40.752531,-73.97264200000001
10017,MANHATTAN,40.752531,-73.97264200000001
10017,MANHATTAN,40.752531,-73.97264200000001
10017,MANHATTAN,40.752531,-73.97264200000001
10017,MANHATTAN,40.752531,-73.97264200000001
10017,MANHATTAN,40.752531,-73.97264200000001
10017,MANHATTAN,40.752531,-73.97264200000001
10017,MANHATTAN,40.752531,-73.97264200000001
10017,MANHATTAN,40.752531,-73.97264200000001
10017,MANHATTAN,40.752531,-73.97264200000001
10017,MANHATTAN,40.752531,-73.97264200000001
10017,MANHATTAN,40.752531,-73.97264200000001
10017,MANHATTAN,40.752531,-73.97264200000001
10017,MANHATTAN,40.752531,-73.97264200000001
10017,MANHATTAN,40.752531,-73.97264200000001
10017,MANHATTAN,40.752531,-73.97264200000001
10017,MANHATTAN,40.752531,-73.97264200000001
10017,MANHATTAN,40.752531,-73.97264200000001
10017,MANHATTAN,40.752531,-73.97264200000001
10017,MANHATTAN,40.752531,-73.97264200000001
10017,MANHATTAN,40.752531,-73.97264200000001
10017,MANHATTAN,40.752531,-73.97264200000001
10017,MANHATTAN,40.752531,-73.97264200000001
10017,MANHATTAN,40.752531,-73.97264200000001
10017,MANHATTAN,40.752531,-73.97264200000001
10017,MANHATTAN,40.752531,-73.97264200000001
10017,MANHATTAN,40.752531,-73.97264200000001
10017,MANHATTAN,40.752531,-73.97264200000001
10017,MANHATTAN,40.752531,-73.97264200000001
10017,MANHATTAN,40.752531,-73.97264200000001
10017,MANHATTAN,40.752531,-73.97264200000001
10017,MANHATTAN,40.752531,-73.97264200000001
10017,MANHATTAN,40.752531,-73.97264200000001
10017,MANHATTAN,40.752531,-73.97264200000001
10017,MANHATTAN,40.752531,-73.97264200000001
10017,MANHATTAN,40.752531,-73.97264200000001
10017,MANHATTAN,40.752531,-73.97264200000001
10017,MANHATTAN,40.752531,-73.97264200000001
10017,MANHATTAN,40.752531,-73.97264200000001
10017,MANHATTAN,40.752531,-73.97264200000001
10017,MANHATTAN,40.752531,-73.97264200000001
10017,MANHATTAN,40.752531,-73.97264200000001
10017,MANHATTAN,40.752531,-73.97264200000001
10017,MANHATTAN,40.752531,-73.97264200000001
10017,MANHATTAN,40.752531,-73.97264200000001
10017,MANHATTAN,40.752531,-73.97264200000001
10017,MANHATTAN,40.752531,-73.97264200000001
10017,MANHATTAN,40.752531,-73.97264200000001
10017,MANHATTAN,40.752531,-73.97264200000001
10017,MANHATTAN,40.752531,-73.97264200000001
10017,MANHATTAN,40.752531,-73.97264200000001
10017,MANHATTAN,40.752531,-73.97264200000001
10017,MANHATTAN,40.752531,-73.97264200000001
10017,MANHATTAN,40.752531,-73.97264200000001
10017,MANHATTAN,40.752531,-73.97264200000001
10017,MANHATTAN,40.752531,-73.97264200000001
10017,MANHATTAN,40.752531,-73.97264200000001
10017,MANHATTAN,40.752531,-73.97264200000001
10017,MANHATTAN,40.752531,-73.97264200000001
10017,MANHATTAN,40.752531,-73.97264200000001
10017,MANHATTAN,40.752531,-73.97264200000001
10017,MANHATTAN,40.752531,-73.97264200000001
10017,MANHATTAN,40.752531,-73.97264200000001
10017,MANHATTAN,40.752531,-73.97264200000001
10017,MANHATTAN,40.752531,-73.97264200000001
10017,MANHATTAN,40.752531,-73.97264200000001
10017,MANHATTAN,40.752531,-73.97264200000001
10017,MANHATTAN,40.752531,-73.97264200000001
10017,MANHATTAN,40.752531,-73.97264200000001
10017,MANHATTAN,40.752531,-73.97264200000001
10017,MANHATTAN,40.752531,-73.97264200000001
10017,MANHATTAN,40.752531,-73.97264200000001
10022,MANHATTAN,40.756032,-73.969341
10022,MANHATTAN,40.756046000000005,-73.969374
10022,MANHATTAN,40.756886,-73.969424
10022,MANHATTAN,40.758615,-73.967658
10017,MANHATTAN,40.749673,-73.971867
10017,MANHATTAN,40.751583000000004,-73.97042900000001
10017,MANHATTAN,40.750213,-73.968846
10022,MANHATTAN,40.758265,-73.964925
10017,MANHATTAN,40.753276,-73.966332
10022,MANHATTAN,40.758764,-73.96194
10022,MANHATTAN,40.758081,-73.962356
10044,MANHATTAN,40.756221999999994,-73.955116
10022,MANHATTAN,40.764720000000004,-73.97216
10065,MANHATTAN,40.764986,-73.972474
10065,MANHATTAN,40.765313,-73.972236
10065,MANHATTAN,40.764308,-73.968796
10065,MANHATTAN,40.765326,-73.969727
10065,MANHATTAN,40.765826000000004,-73.971864
10065,MANHATTAN,40.764941,-73.968333
10065,MANHATTAN,40.765976,-73.969336
10065,MANHATTAN,40.765905,-73.96911999999999
10065,MANHATTAN,40.76658,-73.96878000000001
10065,MANHATTAN,40.768491,-73.969429
10065,MANHATTAN,40.768902000000004,-73.968461
10021,MANHATTAN,40.77026,-73.965898
10021,MANHATTAN,40.774549,-73.964003
10075,MANHATTAN,40.774626,-73.96335
10075,MANHATTAN,40.775101,-73.963025
10065,MANHATTAN,40.76676,-73.965369
10021,MANHATTAN,40.769068,-73.964725
10065,MANHATTAN,40.764452,-73.963735
10022,MANHATTAN,40.760564,-73.96226
10022,MANHATTAN,40.760556,-73.962239
10022,MANHATTAN,40.760545,-73.96221700000001
10065,MANHATTAN,40.760328,-73.961463
10065,MANHATTAN,40.760391,-73.961416
10065,MANHATTAN,40.760453999999996,-73.961372
10065,MANHATTAN,40.760518,-73.961325
10021,MANHATTAN,40.765017,-73.955099
10021,,,
10065,MANHATTAN,40.760481,-73.958246
10128,MANHATTAN,40.78454,-73.9557
10128,MANHATTAN,40.779901,-73.954472
10128,MANHATTAN,40.782799,-73.947678
10128,MANHATTAN,40.782799,-73.947678
10128,MANHATTAN,40.782799,-73.947678
10128,MANHATTAN,40.782799,-73.947678
10128,MANHATTAN,40.782799,-73.947678
10128,MANHATTAN,40.782799,-73.947678
10128,MANHATTAN,40.782799,-73.947678
10128,MANHATTAN,40.782799,-73.947678
10128,MANHATTAN,40.782799,-73.947678
10128,MANHATTAN,40.782799,-73.947678
10128,MANHATTAN,40.782799,-73.947678
10128,MANHATTAN,40.782799,-73.947678
10128,MANHATTAN,40.782799,-73.947678
10128,MANHATTAN,40.782799,-73.947678
10128,MANHATTAN,40.782799,-73.947678
10128,MANHATTAN,40.782799,-73.947678
10128,MANHATTAN,40.782799,-73.947678
10128,MANHATTAN,40.782799,-73.947678
10128,MANHATTAN,40.782799,-73.947678
10128,MANHATTAN,40.782799,-73.947678
10128,MANHATTAN,40.782799,-73.947678
10128,MANHATTAN,40.782799,-73.947678
10128,MANHATTAN,40.782799,-73.947678
10128,MANHATTAN,40.782799,-73.947678
10128,MANHATTAN,40.782799,-73.947678
10128,MANHATTAN,40.782799,-73.947678
10128,MANHATTAN,40.782799,-73.947678
10128,MANHATTAN,40.782799,-73.947678
10128,MANHATTAN,40.782799,-73.947678
10128,MANHATTAN,40.782799,-73.947678
10128,MANHATTAN,40.782799,-73.947678
10128,MANHATTAN,40.782799,-73.947678
10128,MANHATTAN,40.782799,-73.947678
10128,MANHATTAN,40.782799,-73.947678
10128,MANHATTAN,40.782799,-73.947678
10128,MANHATTAN,40.782799,-73.947678
10128,MANHATTAN,40.782799,-73.947678
10128,MANHATTAN,40.782799,-73.947678
10128,MANHATTAN,40.782799,-73.947678
10128,MANHATTAN,40.782799,-73.947678
10128,MANHATTAN,40.782799,-73.947678
10128,MANHATTAN,40.782799,-73.947678
10128,MANHATTAN,40.782799,-73.947678
10128,MANHATTAN,40.782799,-73.947678
10128,MANHATTAN,40.782799,-73.947678
10128,MANHATTAN,40.782799,-73.947678
10128,MANHATTAN,40.782799,-73.947678
10128,MANHATTAN,40.782799,-73.947678
10128,MANHATTAN,40.782799,-73.947678
10128,MANHATTAN,40.782799,-73.947678
10128,MANHATTAN,40.782799,-73.947678
10128,MANHATTAN,40.782799,-73.947678
10128,MANHATTAN,40.782799,-73.947678
10128,MANHATTAN,40.782799,-73.947678
10128,MANHATTAN,40.782799,-73.947678
10128,MANHATTAN,40.782799,-73.947678
10128,MANHATTAN,40.782799,-73.947678
10128,MANHATTAN,40.782799,-73.947678
10128,MANHATTAN,40.782799,-73.947678
10128,MANHATTAN,40.782799,-73.947678
10128,MANHATTAN,40.782799,-73.947678
10128,MANHATTAN,40.782799,-73.947678
10128,MANHATTAN,40.782799,-73.947678
10128,MANHATTAN,40.782799,-73.947678
10128,MANHATTAN,40.782799,-73.947678
10128,MANHATTAN,40.782799,-73.947678
10128,MANHATTAN,40.782799,-73.947678
10128,MANHATTAN,40.782799,-73.947678
10128,MANHATTAN,40.782799,-73.947678
10128,MANHATTAN,40.782799,-73.947678
10128,MANHATTAN,40.782799,-73.947678
10128,MANHATTAN,40.782799,-73.947678
10128,MANHATTAN,40.782799,-73.947678
10128,MANHATTAN,40.782799,-73.947678
10128,MANHATTAN,40.782799,-73.947678
10128,MANHATTAN,40.782799,-73.947678
10128,MANHATTAN,40.782799,-73.947678
10128,MANHATTAN,40.782799,-73.947678
10128,MANHATTAN,40.782799,-73.947678
10128,MANHATTAN,40.782799,-73.947678
10128,MANHATTAN,40.782799,-73.947678
10128,MANHATTAN,40.782799,-73.947678
10128,MANHATTAN,40.782799,-73.947678
10128,MANHATTAN,40.782799,-73.947678
10128,MANHATTAN,40.782799,-73.947678
10128,MANHATTAN,40.782799,-73.947678
10128,MANHATTAN,40.782799,-73.947678
10128,MANHATTAN,40.782799,-73.947678
10128,MANHATTAN,40.782799,-73.947678
10128,MANHATTAN,40.782799,-73.947678
10128,MANHATTAN,40.782799,-73.947678
10128,MANHATTAN,40.782799,-73.947678
10128,MANHATTAN,40.782799,-73.947678
10128,MANHATTAN,40.782799,-73.947678
10128,MANHATTAN,40.782799,-73.947678
10128,MANHATTAN,40.782799,-73.947678
10128,MANHATTAN,40.782799,-73.947678
10128,MANHATTAN,40.782799,-73.947678
10128,MANHATTAN,40.782799,-73.947678
10128,MANHATTAN,40.782799,-73.947678
10128,MANHATTAN,40.782799,-73.947678
10128,MANHATTAN,40.782799,-73.947678
10128,MANHATTAN,40.782799,-73.947678
10128,MANHATTAN,40.782799,-73.947678
10128,MANHATTAN,40.782799,-73.947678
10128,MANHATTAN,40.782799,-73.947678
10128,MANHATTAN,40.782799,-73.947678
10128,MANHATTAN,40.782799,-73.947678
10128,MANHATTAN,40.780488,-73.946119
10028,MANHATTAN,40.772537,-73.94909399999999
10029,MANHATTAN,40.788357,-73.952816
10029,MANHATTAN,40.796015000000004,-73.947288
10029,MANHATTAN,40.788996999999995,-73.942628
10027,MANHATTAN,40.807618,-73.943002
10035,MANHATTAN,40.809406,-73.940089
10035,MANHATTAN,40.803332,-73.93607
10026,MANHATTAN,40.798831,-73.953834
10026,MANHATTAN,40.800451,-73.954533
10025,MANHATTAN,40.796595,-73.962565
10025,MANHATTAN,40.798435999999995,-73.960985
10025,MANHATTAN,40.79846,-73.95973599999999
10025,MANHATTAN,40.801263,-73.959907
10025,MANHATTAN,40.801263,-73.959907
10025,MANHATTAN,40.801263,-73.959907
10025,MANHATTAN,40.798596999999994,-73.967042
10025,MANHATTAN,40.795574,-73.971898
10025,MANHATTAN,40.796257000000004,-73.970626
10025,MANHATTAN,40.797011,-73.970055
10025,MANHATTAN,40.797588,-73.969654
10025,MANHATTAN,40.798792999999996,-73.970614
10025,MANHATTAN,40.798896,-73.968064
10025,MANHATTAN,40.798885999999996,-73.968689
10025,MANHATTAN,40.798817,-73.96874
10025,MANHATTAN,40.798924,-73.967851
10025,MANHATTAN,40.800933,-73.967933
10025,MANHATTAN,40.801811,-73.96684599999999
10025,MANHATTAN,40.803798,-73.965848
10025,MANHATTAN,40.805265999999996,-73.965887
10025,MANHATTAN,40.80581,-73.96549300000001
10025,MANHATTAN,40.806484999999995,-73.965001
10025,MANHATTAN,40.806172,-73.96522900000001
10025,MANHATTAN,40.796087,-73.973115
10025,MANHATTAN,40.804224,-73.966675
10025,MANHATTAN,40.805195,-73.96712600000001
10025,MANHATTAN,40.805640000000004,-73.966186
10025,MANHATTAN,40.807028,-73.965644
10025,MANHATTAN,40.80707,-73.965738
10025,MANHATTAN,40.807136,-73.965897
10025,MANHATTAN,40.806452,-73.966222
10025,MANHATTAN,40.806979,-73.965528
10025,MANHATTAN,40.807045,-73.96568
10025,MANHATTAN,40.808423,-73.96629
10025,MANHATTAN,40.807874,-73.965654
10025,MANHATTAN,40.807739,-73.965329
10027,MANHATTAN,40.808524,-73.96508299999999
10027,MANHATTAN,40.809894,-73.944582
10026,MANHATTAN,40.804611,-73.952732
10027,MANHATTAN,40.809197,-73.951865
10027,MANHATTAN,40.811642,-73.950642
10027,MANHATTAN,40.814327,-73.951171
10027,MANHATTAN,40.809801,-73.958862
10027,MANHATTAN,40.810085,-73.963699
10027,MANHATTAN,40.814556,-73.962475
10030,MANHATTAN,40.816205,-73.941795
10039,MANHATTAN,40.827294,-73.936918
10031,MANHATTAN,40.828403,-73.942337
10032,MANHATTAN,40.830574,-73.941508
10031,MANHATTAN,40.82553,-73.94828299999999
10031,MANHATTAN,40.825497,-73.948208
10031,MANHATTAN,40.824672,-73.95220400000001
10032,MANHATTAN,40.840121,-73.937531
10033,MANHATTAN,40.850735,-73.929016
10033,MANHATTAN,40.848296000000005,-73.931274
10454,BRONX,40.805171,-73.921461
10455,BRONX,40.815457,-73.916218
10455,BRONX,40.815405,-73.91609100000001
10451,BRONX,40.809762,-73.928991
10451,BRONX,40.811696999999995,-73.929769
10451,BRONX,40.813187,-73.928713
10451,BRONX,40.815325,-73.928674
10451,BRONX,40.818595,-73.930409
10451,BRONX,40.821481,-73.928263
10456,BRONX,40.825612,-73.90913
10456,BRONX,40.825634,-73.909199
10456,BRONX,40.830686,-73.90722199999999
10455,BRONX,40.818813,-73.914714
10451,BRONX,40.82398,-73.9131
10451,BRONX,40.826817,-73.911773
10451,BRONX,40.825934000000004,-73.921523
10452,BRONX,40.83746,-73.922283
10452,BRONX,40.832084,-73.931663
10452,BRONX,40.840052,-73.92858299999999
10452,BRONX,40.840513,-73.92841999999999
10454,BRONX,40.803366,-73.919159
10454,BRONX,40.806358,-73.912339
10455,BRONX,40.817853,-73.902388
10459,BRONX,40.822509000000004,-73.900456
10459,BRONX,40.823568,-73.899992
10459,BRONX,40.827434000000004,-73.891914
10459,BRONX,40.827088,-73.891896
10457,BRONX,40.846598,-73.898312
10457,BRONX,40.846567,-73.898327
10457,BRONX,40.846537,-73.89834499999999
10457,BRONX,40.844663,-73.89824300000001
10460,BRONX,40.839933,-73.880863
10459,BRONX,40.831140999999995,-73.884839
10457,BRONX,40.84843,-73.900533
10457,BRONX,40.848729,-73.900359
10457,BRONX,40.849967,-73.899601
10457,BRONX,40.850969,-73.893845
10458,BRONX,40.854186,-73.891042
10458,BRONX,40.85533,-73.891116
10458,BRONX,40.855978,-73.891296
10458,BRONX,40.85696,-73.88208
10457,BRONX,40.856346,-73.900586
10468,BRONX,40.858275,-73.899466
10468,BRONX,40.859854999999996,-73.898556
10468,BRONX,40.862407,-73.911097
10463,BRONX,40.882801,-73.899064
10467,BRONX,40.870391,-73.878155
10467,BRONX,40.878187,-73.871696
10470,BRONX,40.896369,-73.862941
10473,BRONX,40.827513,-73.84550300000001
10473,BRONX,40.827529,-73.845409
10472,BRONX,40.827455,-73.879852
10472,BRONX,40.827490000000004,-73.879859
10462,BRONX,40.83313,-73.85764300000001
10461,BRONX,40.844043,-73.836668
10469,BRONX,,
10469,BRONX,40.868559000000005,-73.857629
10467,BRONX,40.881554,-73.86394
10469,BRONX,40.873658,-73.854725
10469,BRONX,40.873727,-73.853065
10469,BRONX,40.874796,-73.851667
10466,BRONX,40.881324,-73.83860899999999
10466,BRONX,40.883661,-73.83541
10470,BRONX,40.900073,-73.857587
10470,BRONX,40.902256,-73.85136
10470,BRONX,40.905815000000004,-73.853034
10470,BRONX,40.905134999999994,-73.849559
10475,BRONX,40.879901000000004,-73.831806
10475,BRONX,40.882406,-73.829464
10475,BRONX,40.883969,-73.826451
10465,BRONX,40.816966,-73.836828
10471,BRONX,40.901990000000005,-73.896672
10471,BRONX,40.902319,-73.896592
11201,BROOKLYN,40.700070000000004,-73.987219
11201,BROOKLYN,40.685876,-73.97877
11201,BROOKLYN,40.69494,-73.986387
11201,BROOKLYN,40.695357,-73.984176
11201,BROOKLYN,40.695999,-73.983801
11201,BROOKLYN,40.693498999999996,-73.988911
11201,BROOKLYN,40.693598,-73.988904
11201,BROOKLYN,40.691599,-73.984379
11201,BROOKLYN,40.691454,-73.984386
11201,BROOKLYN,40.691248,-73.984375
11201,BROOKLYN,40.689881,-73.98343100000001
11217,BROOKLYN,40.688209,-73.98205
11217,BROOKLYN,40.687589,-73.981654
11201,BROOKLYN,40.689799,-73.98814399999999
11217,BROOKLYN,40.687864000000005,-73.984181
11217,BROOKLYN,40.687583000000004,-73.98249
11201,BROOKLYN,40.688817,-73.989017
11201,BROOKLYN,40.688221,-73.988173
11201,BROOKLYN,40.701586,-73.99552800000001
11201,BROOKLYN,40.69931,-73.995867
11201,BROOKLYN,40.699363,-73.99582
11201,BROOKLYN,40.698674,-73.995182
11201,BROOKLYN,40.697749,-73.99405300000001
11201,BROOKLYN,40.695059,-73.995301
11217,BROOKLYN,40.682575,-73.985975
11217,BROOKLYN,40.681323,-73.984825
11217,BROOKLYN,40.680535,-73.98393100000001
11217,BROOKLYN,40.679064000000004,-73.98315600000001
11215,BROOKLYN,40.677963,-73.984436
11215,BROOKLYN,40.677733,-73.983848
11215,BROOKLYN,40.677851000000004,-73.985752
11215,BROOKLYN,40.677184000000004,-73.984487
11231,BROOKLYN,40.681854,-74.005668
11231,BROOKLYN,40.680163,-74.005834
11231,BROOKLYN,40.675276000000004,-74.015322
11231,BROOKLYN,40.675488,-74.015073
11232,BROOKLYN,40.663801,-73.99600600000001
11232,BROOKLYN,40.663543,-73.99708000000001
11232,BROOKLYN,40.662896,-73.997545
11232,BROOKLYN,40.661367,-73.997964
11232,BROOKLYN,40.66028,-73.998227
11232,BROOKLYN,40.65849,-74.000097
11232,BROOKLYN,40.657587,-74.00102
11232,BROOKLYN,40.657099,-74.002984
11232,BROOKLYN,40.656558000000004,-74.003597
11232,BROOKLYN,40.656503,-74.003546
11232,BROOKLYN,40.65356,-74.00619499999999
11232,BROOKLYN,40.65187,-74.00489
11232,BROOKLYN,40.652078,-74.005236
11220,BROOKLYN,40.650921999999994,-74.01123299999999
11220,BROOKLYN,40.649025,-74.015287
11232,BROOKLYN,40.649519,-74.016473
11232,BROOKLYN,40.650923,-74.00331899999999
11232,BROOKLYN,40.646814,-73.996523
11232,BROOKLYN,40.65072,-74.00301999999999
11232,BROOKLYN,40.649297999999995,-74.000667
11232,BROOKLYN,40.646877,-73.996663
11215,BROOKLYN,40.67302,-73.98651
11215,BROOKLYN,40.673438,-73.989358
11215,BROOKLYN,40.668777,-73.993245
11215,BROOKLYN,40.668777,-73.993245
11216,BROOKLYN,40.678395,-73.948325
11216,BROOKLYN,40.678209,-73.945178
11216,BROOKLYN,40.678084999999996,-73.942943
11213,BROOKLYN,40.675913,-73.946413
11225,BROOKLYN,40.669815,-73.95539000000001
11213,BROOKLYN,40.667588,-73.94189200000001
11213,BROOKLYN,40.667583,-73.94178000000001
11213,BROOKLYN,40.677477,-73.931648
11213,BROOKLYN,40.665563,-73.937662
11233,BROOKLYN,40.676001,-73.904842
11212,BROOKLYN,40.674555,-73.905652
11233,BROOKLYN,40.672996999999995,-73.909846
11233,BROOKLYN,40.672115999999995,-73.913525
11233,BROOKLYN,40.668442999999996,-73.921312
11233,BROOKLYN,40.678982,-73.908248
11207,BROOKLYN,40.67586,-73.903151
11206,BROOKLYN,40.696771000000005,-73.93700600000001
11221,BROOKLYN,40.694539,-73.930924
11221,BROOKLYN,40.693748,-73.930788
11221,BROOKLYN,40.692288,-73.926985
11216,BROOKLYN,40.6797,-73.950913
11216,BROOKLYN,40.678533,-73.95096099999999
11216,BROOKLYN,40.6785,-73.95035899999999
11205,BROOKLYN,40.697651,-73.95866099999999
11205,BROOKLYN,40.696453000000005,-73.95652700000001
11205,BROOKLYN,40.693391999999996,-73.96210699999999
11238,BROOKLYN,40.687047,-73.965598
11238,BROOKLYN,40.682115,-73.958649
11238,BROOKLYN,40.682159000000006,-73.958656
11205,BROOKLYN,40.696727,-73.97357
11249,BROOKLYN,40.699333,-73.959009
11249,BROOKLYN,40.722474,-73.957246
11249,BROOKLYN,40.721892,-73.95829599999999
11249,BROOKLYN,40.721076000000004,-73.955536
11249,BROOKLYN,40.721489,-73.958332
11249,BROOKLYN,40.721039000000005,-73.95879000000001
11211,BROOKLYN,40.715297,-73.958321
11211,BROOKLYN,40.714893,-73.95904
11211,BROOKLYN,40.714056,-73.952244
11211,BROOKLYN,40.713633,-73.951573
11211,BROOKLYN,40.710035999999995,-73.96260600000001
11211,BROOKLYN,40.7078,-73.956101
11211,BROOKLYN,40.707131,-73.951841
11211,BROOKLYN,40.707104,-73.951759
11211,BROOKLYN,40.707073,-73.951672
11211,BROOKLYN,40.707046000000005,-73.951589
11222,BROOKLYN,40.737466999999995,-73.95353399999999
11222,BROOKLYN,40.737466999999995,-73.95353399999999
11222,BROOKLYN,40.736378,-73.95528399999999
11222,BROOKLYN,40.732966999999995,-73.95809
11222,BROOKLYN,40.727548999999996,-73.9442
11222,BROOKLYN,40.722017,-73.948068
11211,BROOKLYN,40.716279,-73.950796
11211,BROOKLYN,40.712965999999994,-73.938671
11206,BROOKLYN,40.709785,-73.940178
11206,BROOKLYN,40.707435,-73.934326
11206,BROOKLYN,40.704165,-73.937446
11206,BROOKLYN,40.704062,-73.934178
11206,BROOKLYN,40.703031,-73.93570799999999
11206,BROOKLYN,40.703932,-73.932927
11206,BROOKLYN,40.700813000000004,-73.940648
11206,BROOKLYN,40.701153000000005,-73.940042
11206,BROOKLYN,40.7007,-73.93961999999999
11221,BROOKLYN,40.690403,-73.91975
11221,BROOKLYN,40.687768,-73.919014
11237,BROOKLYN,40.696042999999996,-73.904882
11212,BROOKLYN,40.669103,-73.911539
11212,BROOKLYN,40.667378,-73.91016
11212,BROOKLYN,40.668882,-73.90956700000001
11212,BROOKLYN,40.669499,-73.908777
11207,BROOKLYN,40.67751,-73.89729399999999
11207,BROOKLYN,40.677728,-73.89632399999999
11207,BROOKLYN,40.676834,-73.900165
11207,BROOKLYN,40.676837,-73.90015799999999
11207,BROOKLYN,40.673052,-73.896962
11207,BROOKLYN,40.669614,-73.89915500000001
11207,BROOKLYN,40.669425,-73.899109
11207,BROOKLYN,40.669877,-73.895363
11207,BROOKLYN,40.667082,-73.899963
11212,BROOKLYN,40.657247999999996,-73.90069100000001
11208,BROOKLYN,40.677888,-73.88493100000001
11208,BROOKLYN,40.674815,-73.863623
11208,BROOKLYN,40.664112,-73.877746
11207,BROOKLYN,40.656889,-73.889364
11207,BROOKLYN,40.652712,-73.887378
11203,BROOKLYN,40.659027,-73.931152
11226,BROOKLYN,40.655242,-73.960972
11226,BROOKLYN,40.654657,-73.96024399999999
11226,BROOKLYN,40.646148,-73.95809399999999
11210,BROOKLYN,40.635957,-73.95208000000001
11218,BROOKLYN,40.644261,-73.987871
11218,BROOKLYN,40.644496000000004,-73.97975600000001
11218,BROOKLYN,40.643513,-73.970031
11230,BROOKLYN,40.634834000000005,-73.96752
11219,BROOKLYN,40.636537,-73.99056
11219,BROOKLYN,40.636784000000006,-73.99385699999999
11219,BROOKLYN,40.631221000000004,-74.0025
11220,BROOKLYN,40.635669,-74.01139599999999
11209,BROOKLYN,40.624844,-74.027501
11209,BROOKLYN,40.618516,-74.032336
11214,BROOKLYN,40.59387,-73.997253
11230,BROOKLYN,40.627271,-73.974058
11230,BROOKLYN,40.629529999999995,-73.965065
11223,BROOKLYN,40.584657,-73.982985
11223,BROOKLYN,40.584121,-73.98186199999999
11234,BROOKLYN,40.633905,-73.933307
11234,BROOKLYN,40.617727,-73.927769
11234,BROOKLYN,40.637465999999996,-73.92620500000001
11235,BROOKLYN,40.578701,-73.96285999999999
11235,BROOKLYN,40.578803,-73.962878
11235,BROOKLYN,40.579418,-73.962877
11235,BROOKLYN,40.579615000000004,-73.961952
11235,BROOKLYN,40.579864,-73.953445
11235,BROOKLYN,40.583917,-73.938502
11235,BROOKLYN,40.584053999999995,-73.934034
11235,BROOKLYN,40.584207,-73.932187
11101,QUEENS,40.748028999999995,-73.94699
11101,QUEENS,40.748031,-73.94699399999999
11101,QUEENS,40.74406,-73.941198
11101,QUEENS,40.736751,-73.928203
11101,QUEENS,40.736751,-73.928203
11101,QUEENS,40.744203000000006,-73.92773299999999
11101,QUEENS,40.745667,-73.934043
11101,QUEENS,40.736641,-73.936142
11101,QUEENS,40.736146999999995,-73.936373
11101,QUEENS,40.73577,-73.934223
11101,QUEENS,40.759837,-73.941776
11101,QUEENS,40.759463000000004,-73.941011
11101,QUEENS,40.759029,-73.940264
11101,QUEENS,40.759413,-73.939863
11101,QUEENS,40.757865,-73.93870600000001
11101,QUEENS,40.757539,-73.936461
11101,QUEENS,40.753195,-73.92790699999999
11101,QUEENS,40.753432000000004,-73.934281
11101,QUEENS,40.754678000000006,-73.934605
11101,QUEENS,40.754703000000006,-73.934608
11101,QUEENS,40.754626,-73.934673
11101,QUEENS,40.754276000000004,-73.935865
11101,QUEENS,40.755044,-73.935373
11101,QUEENS,40.75542,-73.936163
11101,QUEENS,40.755487,-73.93814499999999
11101,QUEENS,40.753842,-73.93645699999999
11101,QUEENS,40.753235,-73.934747
11101,QUEENS,40.753298,-73.934664
11101,QUEENS,40.753413,-73.934281
11101,QUEENS,40.751906,-73.934593
11101,QUEENS,40.751481,-73.93565799999999
11101,QUEENS,40.752162,-73.935712
11101,QUEENS,40.752195,-73.935401
11101,QUEENS,40.752536,-73.937685
11101,QUEENS,40.752998,-73.938407
11101,QUEENS,40.754111,-73.940795
11101,QUEENS,40.753815,-73.942589
11101,QUEENS,40.749781,-73.93748199999999
11101,QUEENS,,
11101,QUEENS,40.749789,-73.937331
11101,QUEENS,40.750029,-73.941102
11101,QUEENS,40.748745,-73.94197700000001
11101,QUEENS,40.748115999999996,-73.939628
11101,QUEENS,40.747904999999996,-73.94145400000001
11101,QUEENS,40.749338,-73.946787
11101,QUEENS,40.750246000000004,-73.951623
11101,QUEENS,40.751787,-73.947926
11101,QUEENS,40.753849,-73.949664
11101,QUEENS,40.754084000000006,-73.948815
11101,QUEENS,40.757385,-73.94041
11101,QUEENS,40.756002,-73.940519
11101,QUEENS,40.757723,-73.941218
11101,QUEENS,40.757745,-73.94119599999999
11101,QUEENS,40.757407,-73.940413
11101,QUEENS,40.758009,-73.942026
11101,QUEENS,40.758025,-73.942008
11101,QUEENS,40.757734,-73.941236
11101,QUEENS,40.757718,-73.941251
11101,QUEENS,40.758295000000004,-73.94278800000001
11101,QUEENS,40.758333,-73.94274399999999
0,,,
11101,QUEENS,40.758058,-73.94200500000001
11101,QUEENS,40.758034,-73.942026
11101,QUEENS,40.758693,-73.94359200000001
11101,QUEENS,40.75871,-73.943574
11101,QUEENS,40.758928999999995,-73.943163
11106,QUEENS,40.766895,-73.93470500000001
11103,QUEENS,40.768513,-73.911237
11101,QUEENS,40.753253,-73.923688
11103,QUEENS,40.767965000000004,-73.905873
11370,QUEENS,40.767168,-73.897686
11370,QUEENS,40.767038,-73.896755
11369,QUEENS,40.768704,-73.88016800000001
11369,QUEENS,40.769555,-73.88005
11369,QUEENS,40.769194,-73.876094
11370,QUEENS,40.765743,-73.886263
11369,QUEENS,40.767332,-73.88261800000001
11370,QUEENS,40.764338,-73.886034
11370,QUEENS,40.764340999999995,-73.886955
11372,QUEENS,40.749296,-73.885165
11377,QUEENS,40.74238,-73.911846
11377,QUEENS,40.740982,-73.90026
11377,QUEENS,40.740966,-73.90013
11373,QUEENS,40.739078000000006,-73.889516
11373,QUEENS,40.738814,-73.88813499999999
11369,QUEENS,40.770121,-73.870446
11369,QUEENS,40.768306,-73.867533
11369,QUEENS,40.767715,-73.86657
11369,QUEENS,40.768801,-73.868315
11369,QUEENS,40.759453,-73.85732800000001
11368,QUEENS,40.758108,-73.857201
11368,QUEENS,40.754777000000004,-73.85375
11368,QUEENS,40.752066,-73.85424
11368,QUEENS,40.738115,-73.850622
11368,QUEENS,40.738851000000004,-73.84866099999999
11368,QUEENS,40.752049,-73.854229
11377,QUEENS,40.741093,-73.901321
11378,QUEENS,40.729151,-73.905008
11377,QUEENS,40.736247,-73.896612
11377,QUEENS,40.739247,-73.890454
11377,QUEENS,40.739241,-73.890433
11373,QUEENS,40.738611999999996,-73.88717199999999
11373,QUEENS,40.738146,-73.884686
11378,QUEENS,40.72894,-73.890525
11378,QUEENS,40.725977,-73.907574
11374,QUEENS,40.715340000000005,-73.860452
11415,QUEENS,40.712377000000004,-73.828539
11356,QUEENS,40.784548,-73.840349
11356,QUEENS,40.7817,-73.841262
11357,QUEENS,40.783631,-73.825185
11356,QUEENS,40.781456,-73.841414
11354,QUEENS,40.771471000000005,-73.843983
11354,QUEENS,40.769042999999996,-73.83246199999999
11354,QUEENS,40.768927000000005,-73.832415
11354,QUEENS,40.766328,-73.83253
11354,QUEENS,40.765376,-73.830969
11354,QUEENS,40.764218,-73.832752
11354,QUEENS,40.763219,-73.83094200000001
11354,QUEENS,40.758804999999995,-73.83448
11354,QUEENS,40.760684000000005,-73.83349
11354,QUEENS,40.760684000000005,-73.83349
11354,QUEENS,40.761416,-73.832882
11354,QUEENS,40.762471000000005,-73.831681
11354,QUEENS,40.762287,-73.83157299999999
11354,QUEENS,40.761165000000005,-73.83218199999999
11354,QUEENS,40.761438,-73.832889
11354,QUEENS,40.760413,-73.834292
11354,QUEENS,40.759122999999995,-73.83414
11354,QUEENS,40.760413,-73.834292
11354,QUEENS,40.759106,-73.83414
11354,QUEENS,40.759106,-73.83414
11354,QUEENS,40.759106,-73.83414
11354,QUEENS,40.759106,-73.83414
11354,QUEENS,40.760412,-73.83191
11354,QUEENS,40.759102,-73.831498
11354,QUEENS,40.763814,-73.82862
11355,QUEENS,40.757231,-73.824662
11361,QUEENS,40.76161,-73.760761
11361,QUEENS,40.761734000000004,-73.760071
11435,QUEENS,40.717178999999994,-73.81895300000001
11432,QUEENS,40.716352,-73.80794499999999
11365,QUEENS,40.739996000000005,-73.790974
11365,QUEENS,40.73999,-73.790992
11365,QUEENS,40.739881,-73.78824300000001
11361,QUEENS,40.760674,-73.766396
11426,QUEENS,40.726569,-73.715716
11001,QUEENS,40.727692,-73.708347
11435,QUEENS,40.702505,-73.81501800000001
11435,QUEENS,40.703435,-73.814875
11435,QUEENS,40.703625,-73.815
11435,QUEENS,40.705707000000004,-73.81750100000001
11435,QUEENS,40.70596,-73.816458
11435,QUEENS,40.702482,-73.812854
11432,QUEENS,40.705782,-73.798602
11432,QUEENS,40.709165000000006,-73.797657
11432,QUEENS,40.713929,-73.791388
11435,QUEENS,40.700216,-73.81490500000001
11435,QUEENS,40.699498,-73.810994
11435,QUEENS,40.699378,-73.811417
11435,QUEENS,40.697873,-73.81048
11435,QUEENS,40.69815,-73.807193
11435,QUEENS,40.701675,-73.807908
11435,QUEENS,40.701218,-73.80507800000001
11435,QUEENS,40.700998999999996,-73.8058
11435,QUEENS,40.692753,-73.808688
11435,QUEENS,40.696982,-73.806454
11435,QUEENS,40.697049,-73.805621
11435,QUEENS,40.697112,-73.805635
11435,QUEENS,40.697375,-73.80487
11385,,,
11433,QUEENS,40.700016999999995,-73.801284
11433,QUEENS,40.705422999999996,-73.78234
11423,QUEENS,40.708923999999996,-73.777116
11428,QUEENS,40.719097999999995,-73.734052
11429,QUEENS,40.712274,-73.731785
11417,QUEENS,40.672059000000004,-73.843913
11417,QUEENS,40.672059000000004,-73.843913
11417,QUEENS,40.671371,-73.842985
11420,QUEENS,40.683859999999996,-73.806744
11420,QUEENS,40.677107,-73.825194
11430,QUEENS,40.666022999999996,-73.805798
11430,QUEENS,40.666198,-73.80724599999999
11420,,,
11436,QUEENS,40.667788,-73.799719
11436,QUEENS,40.667832000000004,-73.798114
11436,QUEENS,40.668289,-73.79599
11436,QUEENS,40.667227000000004,-73.794122
11436,QUEENS,40.668289,-73.79599
11436,QUEENS,40.668275,-73.7959
11434,QUEENS,40.667485,-73.786869
11434,QUEENS,40.667546,-73.782914
11434,QUEENS,40.668248999999996,-73.783114
11434,QUEENS,40.668834000000004,-73.781886
11434,QUEENS,40.668119,-73.781153
11434,QUEENS,40.668284,-73.781322
11434,QUEENS,40.687452,-73.784883
11434,QUEENS,40.6603,-73.76769499999999
11422,QUEENS,40.640284,-73.743537
11414,QUEENS,40.650177,-73.837636
11434,QUEENS,40.666087,-73.784973
11434,QUEENS,40.666104,-73.78495500000001
11434,QUEENS,40.66641,-73.784662
11434,QUEENS,40.665671,-73.784038
11434,QUEENS,40.666592,-73.782038
11434,QUEENS,40.666672999999996,-73.779878
11691,QUEENS,40.602993,-73.753961
11691,QUEENS,40.602928000000006,-73.75398
11691,QUEENS,40.603970000000004,-73.754739
11691,QUEENS,40.593723,-73.774761
11694,QUEENS,40.581834,-73.830051
11694,QUEENS,40.579495,-73.834939
11694,QUEENS,40.578936999999996,-73.836686
10301,STATEN IS,40.6415,-74.075734
10301,STATEN IS,40.640178999999996,-74.07659699999999
10301,STATEN IS,40.612357,-74.092035
10314,STATEN IS,40.608515000000004,-74.147014
10314,STATEN IS,40.612403,-74.17549
10314,STATEN IS,40.612474,-74.175436
10314,STATEN IS,40.587016,-74.19135899999999
10314,STATEN IS,40.586822999999995,-74.19152700000001
10314,STATEN IS,40.586631,-74.1917
10305,STATEN IS,40.615575,-74.063231
10305,STATEN IS,40.608109000000006,-74.076326
10305,STATEN IS,40.597367999999996,-74.084913
10306,STATEN IS,40.571191999999996,-74.09105699999999
10309,STATEN IS,40.515283000000004,-74.194552
10309,STATEN IS,40.553824,-74.216904
10309,STATEN IS,40.533481,-74.224756
10309,STATEN IS,40.525055,-74.237788
